{"type":"Topology","arcs":[[[163.01947064200024,5.322456422235312],[163.03271471900004,5.293624687264598],[163.0068516870001,5.264933600293649],[162.98136868900008,5.280221688278091],[162.93605058900027,5.273702914284873],[162.91194172100018,5.28414944827424],[162.90556359500022,5.30167097825629],[162.93759168500006,5.320212586237558],[162.96437069300006,5.347750491209704],[162.96788069800004,5.362705650194472],[162.99665862200027,5.37020192218678],[163.02560468600004,5.360427784196787],[163.01947064200024,5.322456422235312]],[[158.18110671600013,6.983051921608665],[158.20465064399997,6.968156106622713],[158.22445657800003,6.972570854618435],[158.27748066500004,6.959578737630688],[158.28009062200024,6.928303006660319],[158.30038471800017,6.917766954670212],[158.31579568600034,6.933441783655476],[158.33319064899996,6.872752948712833],[158.29380760700008,6.870368129714993],[158.31690964100002,6.841204471742633],[158.3144076420001,6.818425140764336],[158.28683470100032,6.786389338794817],[158.2614596630001,6.804506990777571],[158.241439655,6.787670093793622],[158.21656769800015,6.785313270795784],[158.1856537310002,6.800884331781055],[158.1596227240001,6.804504978777573],[158.14964272800023,6.835766627747809],[158.154632642,6.868213477717158],[158.14744566300018,6.891657828694861],[158.11656170300012,6.893425404693206],[158.11140465300014,6.932515583656305],[158.15466264900007,6.955849963634209],[158.18231169800015,6.957063830633042],[158.18110671600013,6.983051921608665]],[[151.88948070400008,7.385574884233197],[151.89234966200004,7.368331968249247],[151.86119060800013,7.362127684255015],[151.8592986440001,7.387398619231539],[151.88948070400008,7.385574884233197]],[[151.6087037110002,7.376532655241514],[151.63287360000027,7.371773745245973],[151.6336977090003,7.327678900286666],[151.5838626000002,7.319755487294151],[151.559341678,7.33714642727799],[151.58325156000024,7.361781511255171],[151.6087037110002,7.376532655241514]],[[151.85154756300005,7.459781549164926],[151.87313867500006,7.450672265173324],[151.8454436940002,7.413674712207426],[151.83586167000007,7.45736772916705],[151.85154756300005,7.459781549164926]],[[-155.88317862099996,-5.609189343945888],[-155.865051582,-5.629072893925989],[-155.88215669999994,-5.643533688911533],[-155.90603657399996,-5.625549979929516],[-155.88317862099996,-5.609189343945888]],[[-154.94514458099997,-3.993421267614079],[-154.893478697,-3.992034398615468],[-154.91081264099995,-4.020717438585108],[-154.91369668599995,-4.045412704559038],[-154.93067959499993,-4.049642380554586],[-154.96990958499998,-4.002990886603913],[-154.94514458099997,-3.993421267614079]],[[-157.73321569599995,2.040719041728956],[-157.71031164199994,2.016981826755136],[-157.6751706809999,2.001491901772103],[-157.6305236349999,1.996093285778119],[-157.61880472899995,1.983189345792471],[-157.62112467199995,1.959514157818514],[-157.64204372299992,1.946002026833534],[-157.65141267899998,1.911539663871473],[-157.64712567099994,1.864860006923024],[-157.63616968500003,1.842762795947426],[-157.60621661899995,1.822227132970143],[-157.54789768399988,1.796559230998598],[-157.48117069399999,1.777071641020168],[-157.46707166199997,1.742552282058273],[-157.46574363299996,1.712664594091361],[-157.50634758399988,1.70196911810324],[-157.53649863099992,1.711244532093004],[-157.60826062999993,1.764070639034584],[-157.65107757099992,1.783488156013078],[-157.72967568299998,1.795864203999282],[-157.7612766309999,1.81846751397439],[-157.78053271299999,1.850927104938447],[-157.80699169899992,1.8643222239236],[-157.83947760899994,1.857269690931534],[-157.86056563899993,1.883754660902135],[-157.83557164199993,1.891285129893773],[-157.76649470099994,1.87687328590979],[-157.75291467699998,1.851323233938059],[-157.73129271999994,1.871271659915942],[-157.69949362299994,1.927061439854298],[-157.69927971699997,1.945683011833895],[-157.71543868499998,1.974000935802664],[-157.71545360499996,1.996532329777806],[-157.74739066799995,2.01339202475909],[-157.75164766899994,2.029726845741109],[-157.77650470499995,2.038291138731553],[-157.80632064399995,2.034222563736145],[-157.80442767499997,2.053991114714429],[-157.7703096409999,2.059430634708348],[-157.73321569599995,2.040719041728956]],[[-157.87338257499994,-21.93020121484232],[-157.93946868499992,-21.942680526843386],[-157.96600361099993,-21.928984161842358],[-157.96228070499993,-21.893828112839717],[-157.94914257399992,-21.881512917838826],[-157.91204862899994,-21.8753450108383],[-157.87338257499994,-21.93020121484232]],[[-159.79034461999998,-21.187357726804134],[-159.736648639,-21.199452142804383],[-159.72016864399995,-21.224913682805166],[-159.721114626,-21.249936177805978],[-159.73727459999992,-21.26442530380633],[-159.81478859599991,-21.245702478805843],[-159.82488962799988,-21.21012632880475],[-159.81314071399999,-21.19289430980428],[-159.79034461999998,-21.187357726804134]],[[-157.32247964099994,-20.177891431810984],[-157.34771771899997,-20.168623896811404],[-157.3517755659999,-20.145258335812407],[-157.33665461299998,-20.13170597181299],[-157.31455958099994,-20.14193742581249],[-157.32247964099994,-20.177891431810984]],[[-158.12713664699987,-19.96431467082144],[-158.084564625,-19.983841487820396],[-158.0736545729999,-20.000718449819352],[-158.10815465399995,-20.025440034818082],[-158.13383462599992,-19.99424477081977],[-158.12713664699987,-19.96431467082144]],[[-157.70553563399992,-19.851147075828244],[-157.7332767159999,-19.81452804983063],[-157.73396269099993,-19.800753899831566],[-157.7048645789999,-19.763397098834158],[-157.70553563399992,-19.851147075828244]],[[-159.7702025709999,-18.82765483893112],[-159.7836915679999,-18.850407514927973],[-159.77786262499998,-18.87979681392396],[-159.79620357,-18.891761142922473],[-159.80928067999994,-18.866285521925793],[-159.80061362499995,-18.84652468192845],[-159.7702025709999,-18.82765483893112]],[[176.84922767400005,-2.672572467035564],[176.80747959300004,-2.629407845082688],[176.82028160900006,-2.625413198087079],[176.84681670300017,-2.656036984053534],[176.84922767400005,-2.672572467035564]],[[176.41825871000015,-1.315183933532251],[176.43588266800006,-1.31713993453009],[176.46731564300018,-1.369773927471611],[176.40638758900005,-1.31847466852854],[176.41825871000015,-1.315183933532251]],[[175.9592437320001,-1.280960622570249],[175.98017870800012,-1.30174288054707],[176.01759368000023,-1.36745214047411],[175.99034159800007,-1.360718622481615],[175.98997463800015,-1.335682380509454],[175.9592437320001,-1.280960622570249]],[[173.40049763200025,0.220375028753755],[173.42289759800016,0.201786649774518],[173.3961796110001,0.186133780791944],[173.38496361900002,0.215302635759388],[173.40049763200025,0.220375028753755]],[[173.85566665900012,0.485260435457585],[173.91600060400015,0.43173712251743],[173.9091497390002,0.423919991526258],[173.87030062300013,0.462283124483298],[173.85566665900012,0.485260435457585]],[[178.36584470900004,-17.510452165175142],[178.32745374900003,-17.539619176168305],[178.25953669600017,-17.543451214167447],[178.21160863800014,-17.535785461169176],[178.1956327310001,-17.52045747517282],[178.1796566560001,-17.48212770218184],[178.17565966100005,-17.436121615192718],[178.16368074800005,-17.413115135198282],[178.1317136780001,-17.424619297195495],[178.11173960300005,-17.443790050190817],[178.06780971300006,-17.505127309176412],[178.03585773100008,-17.562609060163002],[178.00389066099999,-17.608583128152528],[177.98391759100014,-17.666032693139606],[177.97193867800013,-17.685179474135392],[177.95596260300005,-17.74643157312205],[177.93998770100026,-17.769397317116994],[177.92401162600015,-17.811489894108014],[177.90803571900017,-17.83444742410319],[177.87606764300006,-17.903296041088996],[177.85609474100005,-17.914770364086667],[177.83213758500003,-17.910944695087508],[177.78021270100007,-17.918592176085884],[177.74824563100017,-17.93388814408271],[177.66836559100014,-18.002699210069036],[177.6363986880001,-18.048558447060074],[177.6244206130001,-18.094404607051203],[177.6363986880001,-18.140239871042606],[177.66308566200019,-18.19126386903311]],[[177.66308566200019,-18.19126386903311],[177.6039276980001,-18.17935335203529],[177.56932066400006,-18.177230719035613],[177.5455326550001,-18.165703423037804],[177.4582676550001,-18.163221373038287],[177.4345247410001,-18.13675098804327],[177.33819571900014,-18.11627316004702],[177.30612169600008,-18.075978669054766],[177.31199673900016,-18.04085899806154],[177.2942656610002,-18.029087453063713],[177.29287761800018,-18.008642818067848],[177.2667696660002,-17.99109983007124],[177.27308660400018,-17.967696383075914],[177.25271572900007,-17.955683942078288],[177.283843603,-17.90962991008764],[177.2666166130002,-17.894642732090762],[177.283050675,-17.85726698709856],[177.3041836320002,-17.850675459099858],[177.32502774900024,-17.861077736097624],[177.3750455830002,-17.82195721410584],[177.37399264799998,-17.77143412011652],[177.40638769800017,-17.76325572911839],[177.4262697400002,-17.769736281117027],[177.44213869400028,-17.752785223120693],[177.4306796270001,-17.7295628251257],[177.43122864200018,-17.69925269013229],[177.3948365970001,-17.68285467013589],[177.39254766700003,-17.645649748144198],[177.42442371,-17.639764311145512],[177.44822663800005,-17.60721905815286],[177.5108335880003,-17.56671753416206],[177.5106656140001,-17.526538210171424],[177.53794870900003,-17.528656988170887],[177.59356666000028,-17.484555772181128],[177.615951706,-17.48552069618098],[177.62185658900017,-17.45257160318879],[177.6755366440001,-17.4482400031897],[177.69438167700014,-17.436359661192665],[177.75086967000004,-17.446969977190044],[177.75781273500002,-17.415521914197676],[177.77384966300028,-17.395557059202456],[177.8173976730002,-17.403610727200576],[177.81620761100007,-17.42633909619505],[177.84390259200012,-17.42695533319486],[177.85679664200018,-17.402319746200806],[177.90521269400003,-17.42244251619602],[177.94303871400007,-17.42518524319536],[177.9712527030001,-17.407953391199438],[178.013122656,-17.400807986201148],[178.0238347290001,-17.364294907210045],[178.05685473300014,-17.36931466120887],[178.1192776160002,-17.362808125210474],[178.1826017210002,-17.337223874216733],[178.1933287130001,-17.32067665622087],[178.21870459000002,-17.331645047218075],[178.24746658800015,-17.355462560212178],[178.26481662400022,-17.397205947202036],[178.23136864000017,-17.414956806197754],[178.23600768800006,-17.45237161018889],[178.25685163700027,-17.460132079186952],[178.2886046330003,-17.43388666419327],[178.33460971500006,-17.450299939189293],[178.33758562600016,-17.479219182182455],[178.36584470900004,-17.510452165175142]],[[179.84022567000022,-16.232575536534867],[179.83335871200006,-16.25907676752612],[179.8014067300001,-16.282226410518557],[179.70155362000025,-16.33237516950232],[179.6056825850001,-16.390223545483753],[179.545760694,-16.42106878147406],[179.48983764200034,-16.45961815946203],[179.44988965900004,-16.498158988450033],[179.43791158400006,-16.53284062143928],[179.43391459000006,-16.57521717742644],[179.4019626070001,-16.590626971421663],[179.3740086250001,-16.586774313422893],[179.33805864200005,-16.55980788643106],[179.29011566500014,-16.53669244143812],[179.2182156990001,-16.57521717742644],[179.16229264700004,-16.648395550404306],[179.05844069900024,-16.706147702387288],[179.05444370500015,-16.686898996392884],[178.9865417390001,-16.659947825400852],[178.97056566400013,-16.640694090406665],[178.91464261200008,-16.632992462409014],[178.87469462900017,-16.640694090406665],[178.84274264600018,-16.659947825400852],[178.7868195940002,-16.717696120383913],[178.74687161100005,-16.740789772377084],[178.66697665100014,-16.775426646367013],[178.6510007440001,-16.79466646636156],[178.62939471200002,-16.862282944342347]],[[178.62939471200002,-16.862282944342347],[178.6211856440002,-16.848825966346165],[178.63378867300003,-16.817172044355058],[178.59802258900012,-16.795225204361337],[178.5651246250001,-16.793295355361987],[178.5349576530001,-16.817507823355054],[178.49822966200023,-16.815348980355605],[178.4841616430001,-16.75550772437286],[178.50593564800022,-16.72100898338292],[178.5433957150002,-16.734177121379112],[178.56022674400006,-16.71460621538475],[178.57505768300018,-16.675540847396242],[178.5433346940002,-16.668782183398257],[178.53321874300002,-16.643810817405697],[178.57957469100018,-16.625502896411245],[178.60639963100027,-16.657282882401713],[178.6284946630002,-16.645946526405115],[178.65815771600023,-16.666970183398846],[178.70165962500002,-16.682349299394275],[178.70611561300015,-16.656342936402023],[178.72689870900012,-16.65398024540268],[178.74510168900008,-16.63002644240981],[178.79518171600026,-16.602692217418014],[178.81762660900003,-16.613584668414777],[178.8250576690001,-16.583948606423697],[178.8570096510001,-16.555778370432215],[178.88803074000015,-16.56638248342908],[178.890472723,-16.539756194437164],[178.91836568600013,-16.512059034445645],[178.93141161500012,-16.472289585457982],[178.9535825870001,-16.479035173455888],[179.0143886010001,-16.4662589744599],[179.02943462000007,-16.474418253457326],[179.0523836000001,-16.456827321462832],[179.13760358300013,-16.43534986746958],[179.1640317240001,-16.43882751946842],[179.18168669500014,-16.418047775475017],[179.21179164100016,-16.40611865147877],[179.22138959100013,-16.415907875475703],[179.28779572100018,-16.422031694473723],[179.32994060100006,-16.402412843479922],[179.38783273000024,-16.412469116476856],[179.35968060000005,-16.378762298487455],[179.377807639,-16.3600245534935],[179.411666672,-16.36959098749034],[179.40475461900013,-16.344190635498457],[179.44902062300002,-16.302962233511817],[179.49021868300017,-16.288132970516646],[179.5277556960001,-16.286632106517164],[179.54794267100021,-16.263959729524466],[179.62260464200003,-16.247394741529902],[179.65429661700023,-16.23445660353419],[179.6586607390002,-16.200465471545385],[179.6802216760001,-16.217214525539845],[179.70092765900003,-16.20002458354556],[179.738159738,-16.19481103954731],[179.7673497160002,-16.232339502534884],[179.81826759800003,-16.201499462545083],[179.8074795860001,-16.231665764535116],[179.84022567000022,-16.232575536534867]],[[179.7904207370002,-19.167937643888582],[179.76322967500013,-19.199939750885047],[179.734145645,-19.175895087887678],[179.7594755880001,-19.129441909892982],[179.78501860000006,-19.142034378891584],[179.7904207370002,-19.167937643888582]],[[178.336120637,-18.934932302916806],[178.44734161900007,-18.95688903391392],[178.47979768900018,-18.97860470091124],[178.48498558400001,-19.002479545908187],[178.47105368800007,-19.02596094490526],[178.44934070300005,-19.036373615904047],[178.42199658800007,-19.02566422590532],[178.4165186790001,-19.047043945902654],[178.391357714,-19.043675929903145],[178.37184162600025,-19.06004612190114],[178.314208665,-19.030792944904668],[178.31146258600006,-19.003919389908013],[178.26951568700008,-18.997550819908856],[178.27017165499996,-19.018719650906174],[178.23924260000027,-19.02108435390592],[178.21975668600035,-19.054207287901825],[178.1844485900001,-19.046921905902728],[178.16830470900015,-19.074291165899407],[178.16908271700007,-19.100249752896424],[178.1933287130001,-19.12134448889393],[178.18322768200005,-19.14824201589085],[178.15228270100033,-19.158403229889682],[178.1599576750001,-19.129672914893],[178.1178736470001,-19.12812796289318],[178.09060664600008,-19.164464853889],[178.03251670400013,-19.14500006389113],[178.02214074600022,-19.161091137889358],[177.99453763000028,-19.140433266891744],[177.9781037350001,-19.147566769890922],[177.96089166500005,-19.118168585894235],[178.018447679,-19.105035316895787],[178.03533972900004,-19.07905879289887],[178.06408663900004,-19.06983936989999],[178.12696868300017,-19.077799998899064],[178.12643458800017,-19.052988559902087],[178.1638797350001,-19.04236315590327],[178.16812164800012,-18.99112407890961],[178.20989973600015,-18.979331746911168],[178.22798168000023,-18.966888643912643],[178.26547259200015,-18.976918931911385],[178.31729169700023,-18.937050409916534],[178.336120637,-18.934932302916806]],[[-179.84828168499996,-18.926515865917846],[-179.7858576289999,-18.94821074591509],[-179.7824557499999,-18.96585867591286],[-179.81112671999992,-18.987376194910052],[-179.8138277039999,-18.952260546914545],[-179.84532169999991,-18.94646580191525],[-179.84828168499996,-18.926515865917846]],[[-178.95138569000002,-18.990962140909584],[-178.9706576969999,-18.982117723910765],[-178.98185759599994,-18.95382628591438],[-178.9498746009999,-18.922919191918385],[-178.9342197199999,-18.944007892915597],[-178.9326016779999,-18.975684948911542],[-178.95138569000002,-18.990962140909584]],[[178.49772674800008,-18.87768273092436],[178.51606769300017,-18.873254906924913],[178.5198667070001,-18.91298563091962],[178.4957576710002,-18.92433020091814],[178.4635926200001,-18.916400417919164],[178.46205169100006,-18.891135182922504],[178.49772674800008,-18.87768273092436]],[[-178.64668272199992,-18.845715660928647],[-178.5992885919999,-18.848218664928297],[-178.6152956799999,-18.867151539925768],[-178.65528858999994,-18.860823873926556],[-178.64668272199992,-18.845715660928647]],[[-178.50134270099997,-18.635285298958795],[-178.48402367699995,-18.65399907195602],[-178.50047265899994,-18.672951057953103],[-178.5194397319999,-18.656336783955624],[-178.50134270099997,-18.635285298958795]],[[179.94978368300008,-18.55016522797189],[179.94219973700012,-18.577594670967546],[179.90359470200008,-18.593896634965052],[179.9090876990001,-18.626225634960196],[179.89645365600003,-18.656237877955647],[179.86715672500006,-18.60901859396275],[179.84243765500003,-18.59941729096432],[179.83766164600016,-18.58407907896658],[179.87017873700006,-18.563496477969874],[179.94978368300008,-18.55016522797189]],[[177.66438267800007,-18.60047810496407],[177.65304565100016,-18.598166543964478],[177.6100007220001,-18.52138311397653],[177.6290586560001,-18.49338470698101],[177.65240460300006,-18.515468339977406],[177.6475677420001,-18.541420891973225],[177.66438267800007,-18.60047810496407]],[[178.14968867000002,-18.395248546997085],[178.15092466500008,-18.41362234899402],[178.12062073200013,-18.42653047999196],[178.09532163400013,-18.416458114993688],[178.1250606260002,-18.3599107780032],[178.15251169500024,-18.36354450100256],[178.14968867000002,-18.395248546997085]],[[-178.7803195959999,-18.175353675036],[-178.747543672,-18.189655884033407],[-178.734786583,-18.212384421029146],[-178.74342363199995,-18.224954593027007],[-178.77706859099993,-18.23731991202474],[-178.82929975,-18.224985774026997],[-178.8298036699999,-18.189617831033406],[-178.81518563099996,-18.175786852035923],[-178.7803195959999,-18.175353675036]],[[-179.06048571599996,-17.95307297907887],[-179.0357666449999,-17.964812337076506],[-179.0274357039999,-17.997511483069996],[-179.04728673299996,-18.00176814806909],[-179.073959625,-17.97650978607417],[-179.06048571599996,-17.95307297907887]],[[179.2838136470002,-17.94211984308111],[179.30639667300022,-17.942625775081027],[179.34677163000012,-17.99695039807015],[179.3578337310001,-18.023728902064846],[179.358367658,-18.054270881058923],[179.3712617080001,-18.0948146500511],[179.35655163500002,-18.11423250204744],[179.33590667200022,-18.117162313046922],[179.32203663400003,-18.10005233405011],[179.30865459000006,-18.056982762058357],[179.26118468800007,-18.0134984540669],[179.25617968600022,-17.991490929071194],[179.26380973200003,-17.959734748077597],[179.2838136470002,-17.94211984308111]],[[179.3936616730003,-17.784344430113745],[179.4167476140001,-17.791030842112434],[179.4267727050001,-17.83342650810353],[179.40579263400002,-17.84670260410068],[179.38877871200017,-17.825263875105144],[179.3936616730003,-17.784344430113745]],[[-179.28192168399994,-17.766183360117825],[-179.2989345999999,-17.780010483114854],[-179.32785065799993,-17.7728970971163],[-179.33843968299993,-17.757449920119694],[-179.32888766699998,-17.727899856126005],[-179.30958565199995,-17.72115912912745],[-179.28111266199997,-17.73126166912533],[-179.28192168399994,-17.766183360117825]],[[-178.79891970999995,-17.694947912133266],[-178.83090169899995,-17.678787938136807],[-178.81243871399994,-17.656620318141677],[-178.79891970999995,-17.694947912133266]],[[178.8272557390001,-17.727275739126217],[178.80473373300006,-17.72785777812604],[178.77847272700035,-17.74659468512201],[178.7608646960001,-17.729692577125583],[178.74382059800018,-17.686150434135175],[178.75028958400003,-17.644327084144496],[178.79302974600034,-17.61953660015],[178.81561260500004,-17.627681965148202],[178.83010860400032,-17.64803758514363],[178.83978266100002,-17.699651668132272],[178.8272557390001,-17.727275739126217]],[[-179.14422562199996,-17.438936593191997],[-179.12902872899994,-17.457505191187593],[-179.14353964699995,-17.47474525718356],[-179.17366068699994,-17.464465020185933],[-179.17637659099995,-17.434431823193155],[-179.15896570199988,-17.42174866219616],[-179.14422562199996,-17.438936593191997]],[[178.36584470900004,-17.510452165175142],[178.38377360000015,-17.54291913116753],[178.40339664100009,-17.540794319167993],[178.42456061200014,-17.56276999316298],[178.48759470299998,-17.575187112160144],[178.50091572600002,-17.608663259152515],[178.53089863200012,-17.616818684150626],[178.57989471200003,-17.641885100144986],[178.57987962500033,-17.686890388135026],[178.54426558900005,-17.761201827118786],[178.5866237040001,-17.792952812112034],[178.57141071700005,-17.82378799010547],[178.6238406950002,-17.848141442100427],[178.60282860499998,-17.869817211095853],[178.600280674,-17.88842905909206],[178.58020065200003,-17.9029800430891],[178.5817256550001,-17.92226596408509],[178.60137970900007,-17.9655883340764],[178.6396947300001,-17.989767945071577],[178.65040562900003,-18.018430199065882],[178.68186961700007,-18.019206027065728],[178.6760555930001,-18.053913980059036],[178.64215062700018,-18.09494658105105],[178.61958268800015,-18.09665330405077],[178.58825666600023,-18.1280195590449],[178.55900566800028,-18.09414560605129],[178.49127167600022,-18.10174816004981],[178.4745026730003,-18.113519370047634],[178.4472656790002,-18.15518296103979],[178.42369073800012,-18.15181410604039],[178.43028260200003,-18.11343756204765],[178.39323459000013,-18.102985161049634],[178.36427260000008,-18.13614296504333],[178.32862872400003,-18.11763706404687],[178.2886046330003,-18.153565086040057],[178.26023859700024,-18.155928950039616],[178.259338715,-18.175912581035952],[178.238464591,-18.193872485032653],[178.2156217260001,-18.192770600032805],[178.15396159600004,-18.258110888020983],[178.12269558900024,-18.257469672021074],[178.1046297370001,-18.241646651023956],[178.06256063000035,-18.257545612021133],[178.0272066010002,-18.26079561102056],[177.9795536370002,-18.249808110022503],[177.9538267260002,-18.260847411020517],[177.89778163400024,-18.270281914018867],[177.88478063099996,-18.246625501022976],[177.8619386040003,-18.255811732021396],[177.76741068500007,-18.21650613802852],[177.74023471100008,-18.214190386028942],[177.66308566200019,-18.19126386903311]],[[177.11906460600017,-17.266779175234362],[177.1580656020002,-17.261663532235563],[177.16203258900006,-17.283487996230118],[177.14109761200007,-17.31531022722217],[177.1093296960001,-17.30645055522433],[177.11906460600017,-17.266779175234362]],[[-179.13050863799992,-17.27889136023118],[-179.15362559099987,-17.28319010323015],[-179.15672270499994,-17.24582022623954],[-179.12614468399994,-17.257234534236737],[-179.13050863799992,-17.27889136023118]],[[179.43595860100004,-17.24852406023886],[179.4467617000001,-17.31828194722148],[179.41694660000005,-17.380012987206236],[179.38935873900016,-17.39678517520215],[179.3671726800001,-17.304684823224836],[179.35240158700026,-17.26096347523572],[179.42298861100005,-17.24313047324027],[179.43595860100004,-17.24852406023886]],[[-179.02696262899994,-17.157921890262188],[-178.99627664899992,-17.174592824257868],[-178.9412846589999,-17.187829023254455],[-178.91860959899992,-17.22185183924573],[-178.93173264199996,-17.246428417239503],[-178.9557957449999,-17.251002086238305],[-178.9804076949999,-17.287723875229073],[-178.99670362299992,-17.27355460323261],[-178.9623416759999,-17.234590152242447],[-178.9616696149999,-17.208403578249168],[-178.979492726,-17.189901868253855],[-179.0055237319999,-17.190599745253678],[-179.02696262899994,-17.157921890262188]],[[177.30136060700005,-17.07717884928338],[177.2747346530001,-17.11427245827364],[177.24697865200028,-17.130701324269268],[177.23391763500013,-17.106094068275763],[177.24023474000006,-17.07788460528325],[177.26783768800007,-17.104149131276245],[177.30136060700005,-17.07717884928338]],[[-179.28594969099996,-17.000731365304002],[-179.25621069899995,-17.008507089301844],[-179.2679747,-17.030966734295756],[-179.29081773299998,-17.021470373298406],[-179.28594969099996,-17.000731365304002]],[[177.34664970600022,-16.93869337932094],[177.36450165100015,-16.95274748431702],[177.3491666240001,-16.974963216311004],[177.32939170300006,-16.965491833313582],[177.34664970600022,-16.93869337932094]],[[177.44442762500026,-16.85588235534407],[177.4481656180002,-16.885955618335622],[177.41761760400004,-16.893911218333383],[177.42483559600018,-16.86593175434123],[177.44442762500026,-16.85588235534407]],[[179.93026759500003,-17.00832620830188],[179.911956657,-16.995457807305357],[179.89436371200014,-16.94562789631896],[179.92938263300013,-16.905509257330184],[179.95845073800012,-16.88427772933608],[179.97929368200005,-16.82508137635293],[179.99902367600018,-16.799704158360115],[179.99893164300008,-16.97613617931068],[179.93026759500003,-17.00832620830188]],[[178.2817076680002,-16.79442422936162],[178.309615718,-16.802617875359232],[178.33543365600002,-16.82549829135276],[178.3082886950001,-16.833141078350497],[178.2901306430001,-16.8189588983546],[178.2817076680002,-16.79442422936162]],[[-179.75907862199992,-16.745713470375748],[-179.70487972699993,-16.767685120369396],[-179.74923659099997,-16.78183813136525],[-179.75851468699992,-16.799865929360006],[-179.79415872999994,-16.790937693362654],[-179.78301968399992,-16.77082280236846],[-179.78668173699992,-16.748611094374915],[-179.75907862199992,-16.745713470375748]],[[-179.66192666399996,-16.740689525377196],[-179.6732486029999,-16.778487382366155],[-179.69171158899988,-16.741109626376986],[-179.66192666399996,-16.740689525377196]],[[177.57769770600018,-16.6998902763891],[177.59436059400014,-16.711391420385613],[177.56834367000022,-16.750587211374242],[177.53039560900004,-16.778970347366037],[177.52464260600016,-16.801904743359447],[177.50032066900005,-16.804608745358674],[177.47450273100017,-16.84172750034808],[177.44444271200015,-16.846705177346696],[177.54115260800012,-16.762468391370867],[177.58244370700004,-16.7148144223847],[177.57769770600018,-16.6998902763891]],[[-179.83715873199995,-16.76833203536919],[-179.84370466299995,-16.794121307361685],[-179.87403860299995,-16.856024345344068],[-179.92796374499994,-16.90514145933032],[-179.94479360099993,-16.91269707432806],[-179.98588571299996,-16.94850389431824],[-179.99841263499997,-16.97059339431218],[-179.99822974199998,-16.79568738236125],[-179.95927467899998,-16.762325228370898],[-179.9248966389999,-16.716455263384294],[-179.89680468999995,-16.697050487390026],[-179.86164864099996,-16.69039978239187],[-179.84774758999993,-16.729229451380522],[-179.85217273199993,-16.75269391937367],[-179.83715873199995,-16.76833203536919]],[[179.94137562800003,-16.63939288340705],[179.91772474700008,-16.670422186397705],[179.89442473300016,-16.673906711396775],[179.90652468000008,-16.633839370408648],[179.94137562800003,-16.63939288340705]],[[178.63623065700006,-16.576393829425953],[178.5942227370001,-16.600663294418737],[178.59315471500005,-16.5772650444258],[178.63623065700006,-16.576393829425953]],[[-179.91436762699993,-16.449242872465188],[-179.9183346139999,-16.47177862445818],[-179.9394077249999,-16.478698053456036],[-179.92784170399997,-16.506083240447484],[-179.92919973999994,-16.52789714344078],[-179.97212262799997,-16.53898941843734],[-179.9992067369999,-16.527707879440896],[-179.99917572399994,-16.491773152452026],[-179.97221365599995,-16.463278033460718],[-179.9421997369999,-16.44936675646508],[-179.91436762699993,-16.449242872465188]],[[179.84022567000022,-16.232575536534867],[179.861984588,-16.201461409545118],[179.90393064900013,-16.194551032547295],[179.96328759900004,-16.158296284559462],[179.97096274000012,-16.181366801551764],[179.90087863000008,-16.234496501534192],[179.84080469200015,-16.27441280052114],[179.8405916240001,-16.295287595514353],[179.80717465300017,-16.359892454493465],[179.77723667400025,-16.388859809484227],[179.772353712,-16.409829487477484],[179.74913064400005,-16.43669264846914],[179.74552961000015,-16.4539385824637],[179.71539264500018,-16.480176118455507],[179.64123560100006,-16.50802918244697],[179.62670858900003,-16.52836602644063],[179.58241274500017,-16.546932948435053],[179.57186864600033,-16.562867784430164],[179.5684665990001,-16.59892354641914],[179.54740874400008,-16.634234325408514],[179.52932763800013,-16.63532514640832],[179.49586473300027,-16.693005716391053],[179.48088074000023,-16.695210659390504],[179.48844859300004,-16.73552711037865],[179.4866486630002,-16.768817851368976],[179.53034972700002,-16.75394684637326],[179.55860864300018,-16.766986908369567],[179.57475269200003,-16.738832765377698],[179.61752369900006,-16.728312303380722],[179.64375268600008,-16.68720007439284],[179.68379169700026,-16.668660142398252],[179.70866365300012,-16.63719229940762],[179.72398359300007,-16.603301414417892],[179.7785036820002,-16.564162620429776],[179.79701260100012,-16.539868344437206],[179.83341973300026,-16.519729648443334],[179.89002959800015,-16.49934888344957],[179.89849867300006,-16.478943978455973],[179.93623366599996,-16.483892654454436],[179.92437763100008,-16.523495302442203],[179.90179460500005,-16.543492009436036],[179.90437371600024,-16.559752901431004],[179.8902436720001,-16.589744021422],[179.86697366400017,-16.612730720415083],[179.87393165000012,-16.636054204408033],[179.85018974100012,-16.642061681406286],[179.84413163700003,-16.671273117397558],[179.87396266300016,-16.675062743396456],[179.89900158700016,-16.714698416384685],[179.93189971900003,-16.734276027378986],[179.92034861800005,-16.761492402371086],[179.87069673800022,-16.774232728367366],[179.860809613,-16.746808146375407],[179.82386771600008,-16.746539422375477],[179.7921147190002,-16.722567850382408],[179.7545626200002,-16.729633459380427],[179.7164916800001,-16.71489639738469],[179.69558671100012,-16.740588606377134],[179.66845666900022,-16.743625370376297],[179.6130366990002,-16.77494049636729],[179.59544358700006,-16.799210967360203],[179.56634564300032,-16.79903813236026],[179.55471759600005,-16.781940055365137],[179.51583864100004,-16.80090109435975],[179.47431972200002,-16.79807505136059],[179.45582572300023,-16.807195400358],[179.4323726550002,-16.798687098360325],[179.34013366600016,-16.8006379023599],[179.30953971900018,-16.817415958354992],[179.292342736,-16.813657177356156],[179.32632464800008,-16.776887276366686],[179.35958873400014,-16.766508133369705],[179.36550870400004,-16.737544970378046],[179.29775962500003,-16.703693983387986],[179.26933273600014,-16.69566462339033],[179.20123262200013,-16.6987231793895],[179.1611025840001,-16.7419357463768],[179.12464868200016,-16.756174755372673],[179.11856073800004,-16.786075016364034],[179.10552972800002,-16.79626523136101],[179.0726466840001,-16.7981012033606],[179.04756165900002,-16.82099184535397],[179.0290835860003,-16.869078656340402],[179.05113268500008,-16.882700757336487],[179.05030874400003,-16.900378694331557],[179.01203965600018,-16.918075574326718],[178.98733567300008,-16.89872678933202],[178.96974172300008,-16.90824829532939],[178.95336868100003,-16.887006709335406],[178.87612860500022,-16.85488373534435],[178.85273773100016,-16.888752324334824],[178.8251956350001,-16.90910023232911],[178.80825765300003,-16.909423271329118],[178.80920363400014,-16.94705600431864],[178.79991162400006,-16.986581372307793],[178.76708960000005,-17.00488526930276],[178.7162627450001,-17.009041016301644],[178.6927796700001,-16.991022104306552],[178.67736769700008,-16.9646997433138],[178.66029359200002,-16.894552266333243],[178.62939471200002,-16.862282944342347]],[[-179.9459377299999,-16.128279179569574],[-179.9742735919999,-16.15707235855983],[-179.98243672799993,-16.132632908568123],[-179.9459377299999,-16.128279179569574]],[[-178.0212096839999,-14.338635395292894],[-177.99192767299988,-14.345635960289663],[-178.03720067899988,-14.386758416270256],[-178.07780462999995,-14.372167199277161],[-178.0592646979999,-14.344911093289978],[-178.0212096839999,-14.338635395292894]],[[-178.13333172099993,-14.295118398313551],[-178.11299169199998,-14.299085049311634],[-178.072891661,-14.324035461299786],[-178.11051970099993,-14.327536246298177],[-178.16126960999995,-14.32393353729987],[-178.19007871399992,-14.29691430431267],[-178.20678669699998,-14.26276156932883],[-178.199157656,-14.24330666933816],[-178.154556711,-14.25898870733069],[-178.13333172099993,-14.295118398313551]],[[-176.15045170699992,-13.314226513814171],[-176.15168770199998,-13.33859572380084],[-176.16867061199994,-13.3513668937939],[-176.21759058399988,-13.2951268388246],[-176.19192469299995,-13.27287104183674],[-176.18725563799998,-13.231310044859695],[-176.16781565799988,-13.21329616186966],[-176.14698763399994,-13.229603154860584],[-176.12878465499995,-13.269788512838451],[-176.1422426389999,-13.28240361283152],[-176.15045170699992,-13.314226513814171]],[[177.08299258300008,-12.482474503293451],[177.11474574700011,-12.484359258292367],[177.1293336110001,-12.513988280274427],[177.09565763900017,-12.522361801269343],[177.06217964700022,-12.520150822270693],[177.0310366860001,-12.508960646277503],[177.0581057070001,-12.479911652294968],[177.08299258300008,-12.482474503293451]],[[-155.7303466869999,20.204192083810195],[-155.74870271899994,20.211008582809857],[-155.79985060099992,20.209383666809938],[-155.81257667699995,20.196961350810444],[-155.80218462599996,20.156589578812138],[-155.7639316319999,20.086944847815257],[-155.73722856499992,20.058862287816538],[-155.68786669899998,20.0320279598179],[-155.66204859299995,20.02695623781827],[-155.55483969199994,20.02947684381818],[-155.48036162099996,20.006491317819332],[-155.45175167099998,19.99254919582009],[-155.33543365399996,19.88059865282666],[-155.32012963899993,19.827613457829973],[-155.32521058199998,19.781839213833038],[-155.37242165099997,19.720876625837253],[-155.39379868899994,19.681916031840363],[-155.39564471999998,19.65808041284216],[-155.37757870099998,19.620626549845095],[-155.34173567099992,19.571009537849193],[-155.33151259899995,19.491328986856026],[-155.31915264499997,19.462363811858598],[-155.26798967499997,19.394233523865157],[-155.20317057399996,19.333616270871104],[-155.1367186779999,19.32370383187197],[-155.05996659599998,19.34462254787004],[-154.96844459599993,19.3619554848683]],[[-154.96844459599993,19.3619554848683],[-154.99534564299995,19.339884760870454],[-155.07739257299997,19.31003663587341],[-155.13255270399992,19.27472367787715],[-155.2151796619999,19.256994610878966],[-155.272506683,19.268759953877815],[-155.2996516439999,19.260149559878663],[-155.34091156299996,19.2334419658815],[-155.357467665,19.208922384884286],[-155.4207305829999,19.182744192887085],[-155.45083670199992,19.150914082890623],[-155.50846865699995,19.133417027892772],[-155.55651858799996,19.0779561538993],[-155.55511461899997,19.057270454901637],[-155.58132969199997,19.01713270590654],[-155.59797665399998,18.97685816391166]],[[-155.59797665399998,18.97685816391166],[-155.63285861499998,18.96862260891263],[-155.6555786019999,18.94781771891533],[-155.6839146309999,18.96514495691307],[-155.74096672599995,18.98210087591083],[-155.76901257399993,18.984446803910632]],[[-155.76901257399993,18.984446803910632],[-155.7947696589999,19.0054354239081],[-155.84097272099996,19.020615553906147]],[[-155.84097272099996,19.020615553906147],[-155.86886568300002,19.048856029902666],[-155.89332558599992,19.090395400897737],[-155.9033206699999,19.121090768894007],[-155.9050595799999,19.183923861886946],[-155.89276165099997,19.27961435087656],[-155.89259367799994,19.31740600487264]],[[-155.89259367799994,19.31740600487264],[-155.88804666299995,19.33601114787089],[-155.90835567899995,19.410950726863433],[-155.92408767299992,19.43946193786081],[-155.92042561999997,19.47254815985783],[-155.94999663899995,19.4911901828561],[-155.95725972599993,19.540833010851742],[-155.96792569799993,19.55945609085018],[-155.97276272599996,19.59668498384692],[-155.98876964699994,19.632313771844174],[-156.00935358899991,19.642939343843356]],[[-156.00935358899991,19.642939343843356],[-156.03176864199992,19.69550611383931],[-156.03433266699992,19.727092477836877],[-156.01847863199995,19.770476034833745],[-155.9679716299999,19.828303623829846],[-155.9249726349999,19.855790901828087],[-155.86645471300002,19.871917180827054],[-155.75631667299993,19.912866800824485],[-155.70889270299995,19.93439052182318],[-155.674301594,19.966937619821348],[-155.68077057899993,19.980964902820645],[-155.75823964899993,20.022600497818527],[-155.79151965999995,20.048381890817073],[-155.83811968899997,20.10038087181454],[-155.87495463299993,20.149273015812362],[-155.89425664799995,20.204439852810133],[-155.89225756399992,20.240963827808752]],[[-155.89225756399992,20.240963827808752],[-155.8790895939999,20.26164567080802],[-155.83668571299998,20.266415644807783],[-155.79821763899992,20.24935360980842],[-155.77070672399998,20.245401542808487],[-155.73202558199992,20.21775215880963],[-155.7303466869999,20.204192083810195]],[[-155.44088771899987,19.883419330826385],[-155.502456653,19.876287839826823],[-155.55151358599988,19.84982130982854],[-155.55786170399998,19.820630996830488],[-155.54437270699998,19.801288246831636],[-155.513213652,19.779219365833153],[-155.45716872699998,19.76105226183442],[-155.4196017079999,19.763560126834367],[-155.39378360199998,19.831319264829617],[-155.3975526089999,19.872141982827145],[-155.41252168199998,19.883280526826344],[-155.44088771899987,19.883419330826385]],[[-155.5729367239999,19.755897725834824],[-155.57957468899986,19.69820894283913],[-155.5892636659999,19.68247108084024],[-155.62550366199991,19.662865976841804],[-155.6430516799999,19.64189227584335],[-155.70384260599994,19.606598260846276],[-155.71897864699991,19.57886204084858],[-155.7550196569999,19.41115675386346],[-155.78512560899992,19.358415807868635],[-155.7909237069999,19.279755501876604],[-155.78654466499995,19.246495271880125],[-155.75856067599997,19.210105406884132],[-155.75601157099987,19.17966719588746],[-155.73982259599993,19.169900769888578],[-155.70367463299993,19.183799976886963],[-155.68730159099994,19.206898657884462],[-155.62689170599992,19.263362342878278],[-155.58413662299995,19.293779598875098],[-155.50851458999992,19.36482025186798],[-155.4653166079999,19.41265359386338],[-155.42539963799993,19.448872635859832],[-155.3941497239999,19.490232131856246],[-155.39321866199995,19.52214622785342],[-155.41299458899994,19.558511114850265],[-155.4588316969999,19.597683938847027],[-155.47859169799992,19.694499279839377],[-155.51174966899998,19.713652095837965],[-155.5460356769999,19.75537285183491],[-155.5729367239999,19.755897725834824]],[[-155.6621096129999,19.180712083887283],[-155.69311561399996,19.13583386589245],[-155.70495572299996,19.083603711898512],[-155.68144263999994,19.064610151900798],[-155.63737461699995,19.072927346899714],[-155.60620164799988,19.088360609897936],[-155.56974757799995,19.15210783389065],[-155.4948426999999,19.251679143879638],[-155.46759061799992,19.283551162876307],[-155.44123858499998,19.32970242487149],[-155.4334715779999,19.39193688186523],[-155.45454368299997,19.38582127786594],[-155.48689263199998,19.359658675868456],[-155.54071065299993,19.302319920874254],[-155.60859669299992,19.23879766688089],[-155.64157059699994,19.21354232188364],[-155.6621096129999,19.180712083887283]],[[-155.80462660999993,19.165272953889158],[-155.81481967499988,19.232076050881698],[-155.81506358799993,19.28864668987559],[-155.80841070399993,19.385672247865877],[-155.8167575709999,19.499314426855435],[-155.8788756879999,19.564021712849733],[-155.89714069299995,19.62029848184501],[-155.91767870299998,19.658946431842093],[-155.93794262399993,19.713680091837777],[-155.9107356369999,19.750910158835236],[-155.96864369099995,19.73681179783616],[-155.97274763899995,19.721776842837347],[-155.95416261199992,19.65284557984242],[-155.91395562899996,19.56316491484981],[-155.89717069999992,19.505561123854847],[-155.87016269899993,19.46691837085819],[-155.85456867099992,19.417400265862884],[-155.86444070899998,19.28806498487572],[-155.86149564399986,19.24726338888002],[-155.83930958399992,19.159353317889785],[-155.80792270899985,19.13158993989297],[-155.80462660999993,19.165272953889158]],[[-155.89131158199987,19.721263702837376],[-155.90087868599994,19.694003238839343],[-155.86134359599995,19.656070432842277],[-155.833602682,19.64544519684313],[-155.7880706749999,19.642697273843265],[-155.783767573,19.656108486842253],[-155.80938769899993,19.686210750839987],[-155.84819071299995,19.717691837837602],[-155.89131158199987,19.721263702837376]],[[-156.5641175629999,20.548164602800547],[-156.61907971399995,20.54481787680067],[-156.5966946679999,20.573790259800106],[-156.56816065799998,20.573821272800245],[-156.5641175629999,20.548164602800547]],[[-156.90624958399997,20.856669098798932],[-156.88183561499991,20.863536894798983],[-156.8347165779999,20.818199515798838],[-156.85322566399995,20.77274797579878],[-156.93504360099993,20.76389148879868],[-156.95898466299988,20.77310102179869],[-156.96009861799988,20.828111954798914],[-157.008880624,20.87576408079891],[-157.00375358199994,20.886198711799146],[-156.9128116079999,20.864221696798968],[-156.90624958399997,20.856669098798932]],[[-156.89553868499996,20.84186095879882],[-156.9040226799999,20.815886613798718],[-156.87501559499998,20.780527555798702],[-156.85488863399993,20.799020548798747],[-156.8666226279999,20.83663350079883],[-156.89553868499996,20.84186095879882]],[[-156.60864256799996,21.02566201380081],[-156.6438137039999,20.98994873580011],[-156.6514286629999,20.963045173799877],[-156.6423946479999,20.877664089799055],[-156.6046445679999,20.836928208798867],[-156.54919458999996,20.821387321798795],[-156.53315766199998,20.838821177798945],[-156.52421567999997,20.869584605799066],[-156.53298968899992,20.93771187679951],[-156.5510257009999,20.973469746800042],[-156.54687464699992,21.000791397800306]],[[-156.54687464699992,21.000791397800306],[-156.47683764299995,20.902396571799205],[-156.44674661099995,20.900851954799222],[-156.42451461799993,20.912845116799385],[-156.3805086209999,20.920044836799352],[-156.33139066799998,20.946309362799507],[-156.30421469399997,20.943335463799567]],[[-156.30421469399997,20.943335463799567],[-156.33392367899995,20.89862790079918],[-156.3264926189999,20.851240475798924],[-156.29634056699996,20.795976576798832],[-156.29811065699994,20.756479874798817],[-156.32189967199994,20.697647296798976]],[[-156.32189967199994,20.697647296798976],[-156.34112557799997,20.667973682799254],[-156.29296869499993,20.661333036799316],[-156.21716259499993,20.67997422179917],[-156.13537567099993,20.69315325579901]],[[-156.13537567099993,20.69315325579901],[-156.10571261899995,20.679202247799115],[-156.03799471999986,20.664563924799246]],[[-156.03799471999986,20.664563924799246],[-156.04849271899997,20.65261853879935],[-156.07730064899994,20.65216256379933],[-156.13685557999992,20.62090544079969],[-156.1932676329999,20.62800407479954],[-156.28611766199998,20.589800197799928]],[[-156.28611766199998,20.589800197799928],[-156.32632464599996,20.586771481800046],[-156.41479462799998,20.593492091799984]],[[-156.41479462799998,20.593492091799984],[-156.4283146379999,20.596225764799915],[-156.45236164799996,20.63868446379948],[-156.4427036839999,20.658569354799244]],[[-156.4427036839999,20.658569354799244],[-156.42027270499992,20.688253529799013],[-156.40414458199996,20.72406772579885],[-156.38273669799995,20.750512127798807],[-156.37893667899996,20.801442415798743],[-156.40090966999992,20.84079310379886],[-156.43002370799988,20.854384527798842],[-156.48818958999996,20.852341354798966],[-156.53335564299994,20.80133948579877],[-156.5576016389999,20.800035261798847],[-156.60176068999996,20.812460762798853],[-156.64544666599994,20.840501245798816],[-156.66026268599995,20.86303699879904],[-156.69419866499996,20.93959176979953]],[[-156.69419866499996,20.93959176979953],[-156.66658062999988,21.00526398180043],[-156.63215665599998,21.02857673680088],[-156.60864256799996,21.02566201380081]],[[-157.20753457899997,21.111432016802482],[-157.23641962399992,21.110622157802307],[-157.25474564899991,21.133212727802903],[-157.24165361899995,21.1512539368033],[-157.1707606559999,21.169988830803856],[-157.13005058999994,21.132264902802866],[-157.13932767999998,21.12102560880259],[-157.20753457899997,21.111432016802482]],[[-156.93458561399999,21.170974877803847],[-156.97465563699996,21.170356963803854],[-156.98265063199997,21.145057362803144],[-156.93655368399988,21.094022971802005],[-156.87181069099992,21.076928918801713],[-156.80148367299995,21.084938497801918],[-156.78176859899995,21.082606819801693]],[[-156.78176859899995,21.082606819801693],[-156.8381806509999,21.056311280801232],[-156.87168864999995,21.051114500801248],[-156.95379659999992,21.066814643801433],[-157.02342272299998,21.089323406802006]],[[-157.02342272299998,21.089323406802006],[-157.07296764999998,21.152035799803276],[-157.11074857599993,21.16346435780363],[-157.10357668399993,21.19719732680451]],[[-157.10357668399993,21.19719732680451],[-157.05915863199996,21.186878868804342],[-156.99272165599996,21.181716119804204],[-156.97454868399993,21.21695414380502],[-156.96054068,21.210591775804986],[-156.93458561399999,21.170974877803847]],[[-157.74029572199996,21.403536146811653],[-157.78167768099993,21.410368570812004]],[[-157.78167768099993,21.410368570812004],[-157.75117459399993,21.453744416813834],[-157.7392887199999,21.4448966478135],[-157.74806172299995,21.416332462812242],[-157.74029572199996,21.403536146811653]],[[-157.74029572199996,21.403536146811653],[-157.7205657279999,21.39292666881126],[-157.70452863199992,21.339550541809242],[-157.66357465299996,21.313303114808278]],[[-157.66357465299996,21.313303114808278],[-157.67991668199994,21.28655931180728],[-157.71467559699988,21.272690111806764]],[[-157.71467559699988,21.272690111806764],[-157.7259676959999,21.282153782807192],[-157.78025862499996,21.269470454806683]],[[-157.78025862499996,21.269470454806683],[-157.80041458699992,21.264915560806582],[-157.846160668,21.28652528080719]],[[-157.846160668,21.28652528080719],[-157.87049869699996,21.31178096080822],[-157.90861456399992,21.32494842780863]],[[-157.90861456399992,21.32494842780863],[-157.9464105769999,21.36292113181008]],[[-157.9464105769999,21.36292113181008],[-157.9609226689999,21.38551086381101],[-157.97770659199998,21.373619792810505],[-157.9793246339999,21.34626628980935],[-157.99987756399995,21.351282020809673]],[[-157.99987756399995,21.351282020809673],[-158.05522159399996,21.357199476809754],[-158.10795566699994,21.357241553809814],[-158.12754870099997,21.37355676081042],[-158.14298967599993,21.40266291981153],[-158.1568607199999,21.449905337813718],[-158.19708262299994,21.468968299814474],[-158.210174653,21.50744727081637],[-158.2483676329999,21.569021904819436],[-158.20436062999997,21.582184174820075]],[[-158.20436062999997,21.582184174820075],[-158.13217165599994,21.58370213782027],[-158.08070358599994,21.629302540822646],[-158.06828261099992,21.657001210824376],[-158.02066065999998,21.699551941826908],[-157.9866636609999,21.71300808182767],[-157.95596259399997,21.696106141826665],[-157.920867565,21.640658175823447],[-157.9246826719999,21.631661543822805],[-157.8859555969999,21.578999554820015]],[[-157.8859555969999,21.578999554820015],[-157.90402262199993,21.598241219821034],[-157.98043858899996,21.655024422824102],[-158.00627161499995,21.654703395824093],[-158.04592857799997,21.633531378823033],[-158.07354761899998,21.548575090818346],[-158.11898759299996,21.528203041817424],[-158.1399076499999,21.54017541781796],[-158.19844065899997,21.558267587818907],[-158.1920627009999,21.501068642816016],[-158.14497367199994,21.483922620815203],[-158.11096158499993,21.458541044814126],[-158.10159262899995,21.429110673812662],[-158.08251960899997,21.411426534811984],[-158.07209771799998,21.443861817813442],[-158.03393558299993,21.46622540581442],[-158.00070167199993,21.461779979814253],[-157.8962856219999,21.388928668811005],[-157.83517467499996,21.328107231808804],[-157.780486612,21.297100895807652],[-157.7377016899999,21.29811879380775],[-157.72135966099998,21.311519110808185],[-157.72785965999998,21.345041190809336],[-157.753448604,21.383632143810917],[-157.74029572199996,21.403536146811653]],[[-160.16828966399993,21.858580282837334],[-160.20150764899998,21.856095383837193],[-160.21362268399994,21.869323535838014],[-160.20498664099998,21.909820365840986]],[[-160.20498664099998,21.909820365840986],[-160.18977365499995,21.925957540842177],[-160.13204966699996,21.952800250844252],[-160.12384059899998,21.964388398845237]],[[-160.12384059899998,21.964388398845237],[-160.07795772499995,21.980870740846537],[-160.06161468999997,21.976178886846146]],[[-160.06161468999997,21.976178886846146],[-160.07418871899992,21.963053664845045],[-160.08451857599994,21.92469857884217],[-160.07565270199993,21.896643342840136],[-160.15696772399994,21.871156657838146],[-160.16828966399993,21.858580282837334]],[[-159.3451996789999,22.03577857685088],[-159.33824169399995,21.96412353084514],[-159.35472068299998,21.94062587084332],[-159.38589465699994,21.9239795788422],[-159.42961164699992,21.885046644839157],[-159.4559475869999,21.87398739383844],[-159.49021867399995,21.88735267383947],[-159.55671667099992,21.888830570839552],[-159.59788472299996,21.901811959840533]],[[-159.59788472299996,21.901811959840533],[-159.6113437129999,21.905362701840804],[-159.63880970099996,21.938392931843286],[-159.65768457299995,21.97751580084619],[-159.68170157599994,21.96816645784557],[-159.72470057199996,21.988961289846998],[-159.75099158399993,22.02149547884973],[-159.75715664199996,22.041813379851458],[-159.74729969099994,22.10575204585685]],[[-159.74729969099994,22.10575204585685],[-159.73583961799994,22.142266130860104],[-159.70724458799995,22.163281908862],[-159.66165172799995,22.17498807486295],[-159.62744166099995,22.19954403386529]],[[-159.62744166099995,22.19954403386529],[-159.63966364899994,22.16382891186206],[-159.6698306219999,22.15318138086094],[-159.70132461699998,22.13127644985905],[-159.7137906859999,22.10636006985689],[-159.7086336369999,22.059604472852858],[-159.68318165199994,22.039726620851212],[-159.6480256029999,22.06272823985322],[-159.65452560199995,22.024631148849938],[-159.64190664699993,22.016643865849282],[-159.6110075989999,22.029345130850434],[-159.61990364799993,21.997028870847732],[-159.61128269299994,21.980582738846568],[-159.55603069599985,21.94325963284351],[-159.49502569599989,21.922167746841883],[-159.45651269399997,21.918398907841723],[-159.40251161299997,21.925894508842305],[-159.39331062999995,21.940023714843406],[-159.41154462199998,21.965365393845264],[-159.36909464099995,22.003618555848192],[-159.3451996789999,22.03577857685088]],[[-156.32189967199994,20.697647296798976],[-156.2580567269999,20.768031310798747],[-156.22265659699994,20.755353849798787],[-156.135635678,20.745982546798736],[-156.1216736069999,20.729640517798924],[-156.13537567099993,20.69315325579901]],[[-155.59797665399998,18.97685816391166],[-155.6160126659999,18.97035263291234],[-155.650176633,18.92677897391807],[-155.68185469499994,18.913296850919746],[-155.6837305649999,18.938806334916396],[-155.72860760899988,18.970615656912432],[-155.76901257399993,18.984446803910632]],[[-155.84097272099996,19.020615553906147],[-155.8766786229999,19.03197705590472],[-155.9165196529999,19.099349787896728],[-155.9188996109999,19.1584075038898],[-155.90290861599993,19.20757055188437],[-155.89259367799994,19.31740600487264]],[[-156.00935358899991,19.642939343843356],[-156.04580665399996,19.696220251839183],[-156.0545506549999,19.741034432835917],[-156.044616591,19.781248121833034],[-156.01351956299996,19.806976876831396],[-155.9778136609999,19.846945478828747],[-155.9355316529999,19.854728914828122],[-155.90805057799997,19.891932997825933],[-155.88030966399998,19.945903736822583],[-155.83213769199992,19.979623965820704],[-155.82647672299996,20.034077669817936],[-155.88236959999998,20.100332926814556],[-155.9013215859999,20.160790420811878],[-155.90567061999994,20.19457552581052],[-155.89225756399992,20.240963827808752]],[[-156.28611766199998,20.589800197799928],[-156.375045632,20.575180985800234],[-156.41168158899998,20.58292971980017],[-156.41479462799998,20.593492091799984]],[[-156.53713956899995,20.579437651800134],[-156.5499415849999,20.543331764800595],[-156.54203761799994,20.515549276801178],[-156.58715857599995,20.508532785801364],[-156.60037264699997,20.521822124800998],[-156.6393587229999,20.50630889880135],[-156.67131070499997,20.502988156801432],[-156.69924959999994,20.532763358800892],[-156.6749415779999,20.554909017800437],[-156.65200768499994,20.55865891380053],[-156.58944666799994,20.6002075047998],[-156.56431571099998,20.60372253979988],[-156.53713956899995,20.579437651800134]],[[-156.95491072299998,20.927584358799376],[-156.8981017039999,20.91659601879938],[-156.84429960799994,20.874558259799116],[-156.81231661300004,20.836093538798924],[-156.8063046089999,20.80762809279869],[-156.83660870899985,20.76154857979869],[-156.8544465729999,20.76078448479885],[-156.90663163099993,20.7401016357988],[-156.959380624,20.737091862798735],[-156.97830159699993,20.752856210798857],[-156.988464655,20.77715585079874],[-156.98800666799994,20.821961314798727],[-157.00924657799993,20.854248405798955],[-157.04678358999993,20.873809252799],[-157.06037870199995,20.894644149799177],[-157.0561066139999,20.914654937799263],[-157.0268406959999,20.928596389799555],[-156.98405459999995,20.932265986799532],[-156.95491072299998,20.927584358799376]],[[-156.4427036839999,20.658569354799244],[-156.44421359999996,20.69384543279904],[-156.46963457099994,20.78546734579869],[-156.4985196149999,20.797120705798736],[-156.537063629,20.77772766479877],[-156.60317957899994,20.809486024798748],[-156.6244506699999,20.811028965798773],[-156.6367496039999,20.830979739798796],[-156.67898567899994,20.872890260798968],[-156.69419866499996,20.93959176979953]],[[-157.02342272299998,21.089323406802006],[-157.05908168599998,21.10348664380223],[-157.08554067199995,21.10494760880225],[-157.1462097259999,21.094492022801983],[-157.2375186589999,21.090479270801907],[-157.302703714,21.096017864802004],[-157.2991026809999,21.134406813802954],[-157.2787475639999,21.162342355803663],[-157.25631658499998,21.175815426804018],[-157.24969471399987,21.20595172180479],[-157.25817870899994,21.224045903805337],[-157.20101966099995,21.216830426805206],[-157.18818663199997,21.205194835804814],[-157.14793371599993,21.19716933180456],[-157.10357668399993,21.19719732680451]],[[-157.78025862499996,21.269470454806683],[-157.79507464399995,21.25646492580636],[-157.82203671199997,21.25666491880629],[-157.846160668,21.28652528080719]],[[-157.66357465299996,21.313303114808278],[-157.65097061799992,21.30763610980804],[-157.70072961799988,21.26125099280649],[-157.71467559699988,21.272690111806764]],[[-157.90861456399992,21.32494842780863],[-157.92860372599995,21.31050322380807],[-157.96255462499997,21.319106576808313],[-157.969329718,21.350962837809632],[-157.9464105769999,21.36292113181008]],[[-157.99987756399995,21.351282020809673],[-157.97901970099986,21.32145853880848],[-157.99555970999987,21.31094310580806],[-158.10250860399998,21.29483694380766],[-158.12107870999995,21.307262276807933],[-158.14103669199997,21.368598026810297],[-158.18377668699992,21.407152769811805],[-158.19979869499997,21.447624453813553],[-158.23616056499995,21.48417256981535],[-158.23448166899996,21.52209263481705],[-158.24237071699997,21.54106440181802],[-158.28317264799998,21.5773164688199],[-158.20436062999997,21.582184174820075]],[[-160.16828966399993,21.858580282837334],[-160.19483967699998,21.81470353383433],[-160.20584058999995,21.784133223832278],[-160.23356658399996,21.790381094832583],[-160.24940469299992,21.820796171834715],[-160.25027456699993,21.84397615683623],[-160.22955366399995,21.887638831839364],[-160.20498664099998,21.909820365840986]],[[-160.12384059899998,21.964388398845237],[-160.11151165699997,21.99598197184763],[-160.0950165749999,22.005999183848456],[-160.05932659899992,21.99783370184785],[-160.06161468999997,21.976178886846146]],[[-159.59788472299996,21.901811959840533],[-159.60980261599994,21.895605327840087],[-159.63233970999997,21.911926234841165],[-159.66809070599993,21.955546999844454],[-159.71012863299995,21.963198671845074],[-159.76579268399996,21.982965546846685],[-159.79168673,22.025149317850094],[-159.78614763299998,22.071194632853924],[-159.74729969099994,22.10575204585685]],[[-155.7303466869999,20.204192083810195],[-155.68266270999987,20.18111033381108],[-155.6311336189999,20.1426115818127],[-155.59176666999994,20.119294803813826],[-155.56448357499994,20.127721298813295],[-155.500762671,20.112583413814107],[-155.44607561399997,20.09516330381489],[-155.36424258999992,20.052104796816895],[-155.2566985809999,20.004296600819462],[-155.17068466399994,19.942285939822888],[-155.092849641,19.864882416827538],[-155.08300760999992,19.843914582828923],[-155.092407579,19.813862442830793],[-155.0872035909999,19.78924395483248],[-155.09187365199995,19.738251808836115],[-155.06085172499988,19.729343353836775],[-155.03869667899994,19.740244689835936],[-154.99890158199992,19.73540799683639],[-154.97686757,19.688850547839817],[-154.97909564799994,19.645199104843186],[-154.9469606039999,19.62431324584485],[-154.94271869099995,19.604752565846255],[-154.90655563999988,19.573489407848836],[-154.86329663799992,19.549984539850943],[-154.82580572599997,19.53846026085186],[-154.80993660399994,19.519274252853627],[-154.8245397229999,19.479849802857064],[-154.85433956799992,19.44903658585989],[-154.9283596519999,19.39668053686483],[-154.96844459599993,19.3619554848683]],[[-156.30421469399997,20.943335463799567],[-156.24722261399992,20.940663647799635],[-156.22886658099995,20.93309797479944],[-156.16224671199998,20.864213985798994],[-156.13119461,20.86078092579893],[-156.11039759999997,20.829766709798808],[-156.08496070299995,20.830688551798904],[-156.05439760199997,20.811615866798746],[-156.00013768699995,20.79482473479876],[-155.97837860099992,20.769771058798792],[-155.9847416389999,20.715090036798962],[-156.00160267599992,20.69211741979892],[-156.03799471999986,20.664563924799246]],[[-156.60864256799996,21.02566201380081],[-156.5900726289999,21.03168843480081],[-156.54687464699992,21.000791397800306]],[[-156.93458561399999,21.170974877803847],[-156.8549047269999,21.162379403803676],[-156.80499267299993,21.175910477803985],[-156.74571266899994,21.17682863180394],[-156.71249367799996,21.14869410280321],[-156.73855569699992,21.115746853802424],[-156.78176859899995,21.082606819801693]],[[-157.8859555969999,21.578999554820015],[-157.8512877099999,21.554538646818614],[-157.83888266099999,21.524114349817136],[-157.85556063699994,21.50143778181613],[-157.84207163999992,21.460453794814182],[-157.78167768099993,21.410368570812004]],[[-159.62744166099995,22.19954403386529],[-159.58486963899998,22.225868406867736],[-159.55776960499998,22.2273124408678],[-159.5079646719999,22.20691239786593],[-159.49118058099995,22.22835749686787],[-159.43978861799994,22.224958467867616],[-159.40591466499998,22.232936027868337],[-159.35617058399995,22.214329040866698],[-159.3190766399999,22.187215427864015],[-159.297653669,22.129967531859034],[-159.30191066899997,22.110372653857258],[-159.3451996789999,22.03577857685088]],[[-177.95199561599992,-29.239389771832705],[-177.92543068199993,-29.241548781833636],[-177.88162266499995,-29.267947753844904],[-177.9179386019999,-29.297317439857473],[-177.949371745,-29.298525606858018],[-177.9374085899999,-29.26969253084562],[-177.95199561599992,-29.239389771832705]],[[144.9116056480002,13.598349645661957],[144.95329270800005,13.597230661662683],[144.93714866000013,13.543522443690922],[144.92105071200015,13.51582997670555],[144.79379263400006,13.422706361755514],[144.77554355500013,13.386898871774736],[144.770385667,13.302510372820711],[144.7633056410001,13.277940164834064],[144.73820469100005,13.26298500584238],[144.72312967000005,13.23964157285517],[144.67430156400016,13.25115881084893],[144.65463259000012,13.28380950883087],[144.65946961800012,13.296429805824088],[144.641128673,13.344495661797781],[144.6584015960002,13.399596951767926],[144.61993369000004,13.436794496747893],[144.6790775720001,13.441078152745648],[144.68516568400003,13.461282897734746],[144.7279816190002,13.478144772725779],[144.76707464800006,13.478687584725483],[144.77937358200006,13.505735650710962],[144.80348161200004,13.513098481707067],[144.80300870500017,13.534514747695765],[144.83518968100017,13.59129426266567],[144.83642567600006,13.61891028665123],[144.86270160200002,13.651339199634142],[144.88751270600017,13.635203029642765],[144.9116056480002,13.598349645661957]],[[145.29194657500008,14.174785532371388],[145.28376768100034,14.152290851382162],[145.24522366700012,14.14743923838453],[145.22215264600015,14.114328541400583],[145.1821595690002,14.106723976404364],[145.172241598,14.126396638394652],[145.14071659,14.135262177390333],[145.1640316920003,14.169065722374047],[145.2054285700002,14.175507382370848],[145.25202960500005,14.20098669135864],[145.29414363900014,14.18876554136449],[145.29194657500008,14.174785532371388]],[[145.67764270000018,14.996229981999374],[145.65620464100004,14.936476567024759],[145.6334995740001,14.955396367016805],[145.6152035560001,14.98506863900418],[145.59822064700015,14.990112366002053],[145.58674665900003,15.017855458990304],[145.60147064600002,15.05423694297506],[145.64671364500003,15.104255781954222],[145.66262870000014,15.090254818960064],[145.654922713,15.031480410984642],[145.67437761300013,15.016280499990946],[145.67764270000018,14.996229981999374]],[[145.8328706850001,15.260251717890696],[145.79371663600014,15.225135063904897],[145.78390461300035,15.185945474920736],[145.80014069400022,15.161126324930834],[145.75358559200004,15.154612579933538],[145.7614136200001,15.122545764946803],[145.74385068300015,15.103920002954515],[145.7142635700001,15.105455734953743],[145.69552565800015,15.121105753947319],[145.70581058800008,15.16144399893083],[145.7305906790002,15.219987401906874],[145.78472855400005,15.25928478089111],[145.80790669500013,15.287945860879622],[145.834518567,15.275405862884456],[145.8328706850001,15.260251717890696]],[[145.66752658100026,16.371096125490055],[145.7084197070002,16.364122550492404],[145.69836460799996,16.341676986499415],[145.6405636750003,16.33973892350017],[145.6232295640002,16.35054923149657],[145.63018771700013,16.372548877489596],[145.66752658100026,16.371096125490055]],[[145.79736360200013,18.109460936048553],[145.77209467900002,18.102875275049797],[145.74670371500008,18.061384686057668],[145.7251286960001,18.079348781054186],[145.75041170100008,18.091223926052056],[145.7613215860001,18.11920422804656],[145.75660659800005,18.144244661041842],[145.76676965600006,18.162813594038557],[145.79705766300023,18.158596826039254],[145.8111577000001,18.133528565043964],[145.79736360200013,18.109460936048553]],[[145.66737369500004,18.7224321979461],[145.65097064600016,18.725681861945578],[145.63322464800012,18.767515437939696],[145.6487735810001,18.803768509934624],[145.6692805780002,18.799822477935],[145.6878206770001,18.779801798937793],[145.68745455600003,18.73961308794354],[145.66737369500004,18.7224321979461]],[[-138.6562955729999,-10.411590206696728],[-138.63500956299998,-10.416630915692886],[-138.59463460499995,-10.45471828366458],[-138.59886159899992,-10.500860996630244],[-138.61405966599995,-10.526077281611627],[-138.63233959099995,-10.532141755607093],[-138.66334559199998,-10.524141229613011],[-138.67222554799991,-10.494974385634595],[-138.65260367999997,-10.456974021662822],[-138.67176856699996,-10.417709666692106],[-138.6562955729999,-10.411590206696728]],[[-139.06341567499996,-9.894641525091297],[-139.03361465599988,-9.931399859062697],[-139.0427707119999,-9.956492930043254],[-139.07101470799995,-9.952875468045967],[-139.10192867599994,-9.984838012021292],[-139.10858155999983,-10.021481345992912],[-139.12983655799994,-9.996401350012313],[-139.112426675,-9.915621932075025],[-139.08825661899996,-9.894317481091662],[-139.06341567499996,-9.894641525091297]],[[-138.97512858599998,-9.704834669240402],[-138.95890759199995,-9.737146403214934],[-138.90206856499998,-9.737002401215019],[-138.87487767099995,-9.766329507191921],[-138.84762558899985,-9.761856756195309],[-138.88241568399997,-9.80341272316276],[-138.91648862399992,-9.812102075155915],[-138.94299370999988,-9.803708772162516],[-138.98802162899995,-9.813990015154383],[-139.03805555599993,-9.810129478157506],[-139.06991567299997,-9.853798355123244],[-139.10324061199987,-9.849376733126698],[-139.13371268499984,-9.832138847140163],[-139.15818767499997,-9.77617572918418],[-139.14569059299998,-9.757145121199175],[-139.08007755699992,-9.739071223213402],[-139.03849761799995,-9.70619857223943],[-139.01919560399995,-9.714671000232638],[-139.00263966899985,-9.700782019243672],[-138.97512858599998,-9.704834669240402]],[[-140.05821263399986,-9.347713961527088],[-140.01736460299986,-9.371523260507747],[-140.03227265599992,-9.454356412440635],[-140.048431624,-9.469113591428782],[-140.09075956399997,-9.448248016445584],[-140.12641869499993,-9.402952044482282],[-140.12873863799996,-9.385881292496038],[-140.09272763499996,-9.347279946527399],[-140.05821263399986,-9.347713961527088]],[[-139.5463566289999,-8.873249793919646],[-139.5037076619999,-8.888746759906656],[-139.48965456299987,-8.938943127864546],[-139.53227268499995,-8.93126161687099],[-139.57798758499996,-8.95566804185057],[-139.61029060099997,-8.933286348869316],[-139.60577359399988,-8.900078924897166],[-139.58546457799997,-8.873915819919139],[-139.5463566289999,-8.873249793919646]],[[-140.14819370599986,-8.802763687979168],[-140.104095675,-8.83171779895465],[-140.0662996619999,-8.819601589964904],[-140.03892570699992,-8.84282784394532],[-139.99194363099997,-8.868162313924017],[-139.99382067499994,-8.90487840289313],[-140.02668762599995,-8.922877365877945],[-140.03912368799996,-8.938642049864841],[-140.0753636849999,-8.952872174852876],[-140.1012875699999,-8.944615831859801],[-140.1146696139999,-8.960352687846665],[-140.17387367799984,-8.976727573832981],[-140.19761659199986,-8.956110941850172],[-140.20500155199983,-8.912254141886935],[-140.21884158299991,-8.89350432790271],[-140.22740168499996,-8.8590397859317],[-140.21565260399996,-8.81799075596627],[-140.18225055199994,-8.805315474977025],[-140.14819370599986,-8.802763687979168]],[[-140.643859562,-7.960410246711341],[-140.65008564,-7.992606980682609],[-140.6835636319999,-8.010260442667017],[-140.69117758500002,-8.049424717632178],[-140.71678161699998,-8.042845258637973],[-140.7209316649999,-8.018847869659378],[-140.711288621,-7.979861793693953],[-140.68791165999994,-7.969041595703719],[-140.643859562,-7.960410246711341]],[[-177.38604766899988,28.20039562340611],[-177.37927274399993,28.21738004141283],[-177.3650057389999,28.206785650408612],[-177.38604766899988,28.20039562340611]],[[141.3001865540001,24.753800619296808],[141.29844663800017,24.78081633130345],[141.33334368699997,24.815702818311824],[141.3533326820001,24.79559161430697],[141.34934960100003,24.778346519302787],[141.3001865540001,24.753800619296808]],[[142.13554362099998,26.697595315858283],[142.1604916860002,26.662928769846687],[142.1772616950002,26.625674562834337],[142.15232855000025,26.635567890837653],[142.13554362099998,26.697595315858283]],[[142.21835364000015,27.091462790993116],[142.22793566400014,27.05712230098098],[142.2163237100002,27.035929328973737],[142.186157576,27.045558794977126],[142.1851505740002,27.06986899598559],[142.21835364000015,27.091462790993116]],[[134.6537166950001,7.623786561015025],[134.64184557300018,7.575466230059003],[134.64653055400015,7.548576917083464],[134.62513758999998,7.52689762810344],[134.64321869600008,7.489239245137902],[134.614898592,7.470066815155394],[134.61680564300016,7.450985245173142],[134.5988616640001,7.431383662191047],[134.59342968800001,7.392730515226727],[134.58195469500015,7.370848048246891],[134.5402986480001,7.341049041274363],[134.52342269200017,7.357787031258911],[134.51173362500015,7.412026997208952],[134.47405965200005,7.445023533178454],[134.50886567300017,7.529759545100883],[134.52517668900006,7.55694457107593],[134.54269369300005,7.560447369072827],[134.54281657200022,7.599537548037037],[134.58520469400003,7.622430872016277],[134.60505656100008,7.616284255021738],[134.63175962900004,7.635447968004441],[134.6430056280002,7.65686423298494],[134.63417059900004,7.68557711295892],[134.6147006120003,7.717244948930106],[134.63468960700015,7.729735996918818],[134.65141267700005,7.706779639939533],[134.64639258800014,7.68653214695801],[134.6537166950001,7.623786561015025]],[[-109.28601864199999,-27.094129660993822],[-109.23929556599988,-27.09501663399423],[-109.238708665,-27.12782306800579],[-109.27776363999997,-27.131099889006855],[-109.28581261399988,-27.145288439011846],[-109.31818352499987,-27.145829407012055],[-109.35224154399991,-27.168838402020192],[-109.39672061599998,-27.173889169021937],[-109.42980952,-27.201013008031623],[-109.45589467299997,-27.183433810025374],[-109.43222065799986,-27.143878435011437],[-109.42478155199994,-27.10973676499933],[-109.40472466299991,-27.06992758598546],[-109.38333153199986,-27.05696228998092],[-109.34103359799985,-27.064512875983574],[-109.28601864199999,-27.094129660993822]],[[-170.6716156619999,-14.248634542335685],[-170.5634616179999,-14.264120443328176],[-170.59442168699997,-14.289397916316215],[-170.61189259,-14.276047724322511],[-170.68916367899993,-14.311855382305616],[-170.71611066,-14.328384327297783],[-170.74073769699996,-14.369053489278587],[-170.77192659099995,-14.370626269277837],[-170.78916967499998,-14.360716010282582],[-170.79408264399996,-14.338405395293094],[-170.84085064599992,-14.330289031296807],[-170.83467066899993,-14.315353150303878],[-170.798492698,-14.29217970231494],[-170.74346969499993,-14.296389429312907],[-170.69854772299996,-14.25872685633078],[-170.6716156619999,-14.248634542335685]],[[-169.45294158899992,-14.217471464350515],[-169.4160766379999,-14.224013036347447],[-169.4284516799999,-14.264300319328202],[-169.4542236849999,-14.254729191332602],[-169.48461864499998,-14.27644754132238],[-169.52066066100002,-14.229650705344719],[-169.45294158899992,-14.217471464350515]],[[-169.6419526679999,-14.174354283371214],[-169.66999868399992,-14.191677163362924],[-169.67338564299996,-14.161100315377768],[-169.6419526679999,-14.174354283371214]],[[-171.82882657999997,-13.785877043564534],[-171.78303573999992,-13.820838632546772],[-171.73896771599996,-13.824499344544858],[-171.69975264699994,-13.857806345527958],[-171.6690976799999,-13.855876496528941],[-171.6151886319999,-13.877273818518155],[-171.60168471499992,-13.864219842524639],[-171.5661466189999,-13.878859842517302],[-171.55398565099992,-13.900990413506094],[-171.5342107299999,-13.90866069350235],[-171.5656886319999,-13.935675902488734],[-171.51527366299987,-13.929161655491965],[-171.47045864499992,-13.951000201481051],[-171.45590162599996,-13.968764806472208],[-171.43280059799994,-13.969769964471713],[-171.41574074199994,-14.011002054451232],[-171.4302367409999,-14.039930014436964],[-171.4847107299999,-14.031447863441091],[-171.49464462599997,-14.036469294438588],[-171.59541370999995,-14.036064448438871],[-171.60882559399997,-14.029107804442239],[-171.67115761699992,-14.036195541438735],[-171.69680758199993,-14.02411822444479],[-171.73181158299994,-14.038908260437413],[-171.76107766799993,-14.039918279436984],[-171.7778776839999,-14.004878404454185],[-171.82551572799994,-14.000963720456125],[-171.82893370099995,-13.977485338467835],[-171.85229473500002,-13.978976144467179],[-171.888244718,-13.995811028458796],[-171.91538967899993,-13.998426853457394],[-171.94895970399995,-13.968574872472324],[-171.96034266399997,-13.93907292048711],[-171.98722862499997,-13.938690705487296],[-172.0038147349999,-13.911456561500897],[-172.04469260599998,-13.886840252513272],[-172.05395460899987,-13.860333992526714],[-172.00679064499994,-13.821730634546322],[-171.9695287269999,-13.818487843547928],[-171.92271462399995,-13.797350360558722],[-171.881408606,-13.788368983563302],[-171.82882657999997,-13.785877043564534]],[[-172.34931963399993,-13.431238719750652],[-172.3154605999999,-13.436991052747631],[-172.2832947119999,-13.481384293723853],[-172.24844359599993,-13.515435105705658],[-172.197662674,-13.597897609662047],[-172.17935173599994,-13.642875572638534],[-172.16627462599993,-13.659520356629749],[-172.19787574199992,-13.69843065960964],[-172.19522069,-13.722832223596951],[-172.21603362699997,-13.732591608591951],[-172.20660364999998,-13.766928242574206],[-172.22804271499996,-13.799456062557685],[-172.2612306929999,-13.792108653561286],[-172.28407272,-13.755380997580248],[-172.3168337239999,-13.755621893580056],[-172.32685864799993,-13.772577980571443],[-172.35418666899994,-13.769860064572825],[-172.44700669199992,-13.791977728561431],[-172.46771267499992,-13.785616031564729],[-172.52629061099998,-13.80105398855675],[-172.55010963299992,-13.77142882157191],[-172.57243365899996,-13.762747517576408],[-172.5895236889999,-13.720056304598398],[-172.62573267199994,-13.682965712617614],[-172.64338663699996,-13.651539778634032],[-172.70046974399997,-13.60483816065846],[-172.73924258499991,-13.567478509678107],[-172.77302567799998,-13.551552725686536],[-172.79859970199988,-13.51475516570608],[-172.78324858199989,-13.484284097722306],[-172.75147965999992,-13.486389966721173],[-172.70362871599994,-13.507492413709853],[-172.612106715,-13.490276655719075],[-172.57913163799992,-13.489381803719565],[-172.54338064099994,-13.46687723173152],[-172.51373267599993,-13.468711023730618],[-172.47875968799994,-13.45470603773811],[-172.4220427019999,-13.457647917736503],[-172.40495267199998,-13.440512960745743],[-172.34931963399993,-13.431238719750652]],[[-149.47640956799995,-17.503094698176728],[-149.40214556999993,-17.514060909174265],[-149.37203961799992,-17.536598338169036],[-149.343856642,-17.54093731416804],[-149.3111876709999,-17.576390921159824],[-149.30230670999998,-17.604398212153445],[-149.31196567999987,-17.645073744144284],[-149.30728170499992,-17.71595664912857],[-149.29298368599999,-17.72984278112565],[-149.25265466199994,-17.739268231123617],[-149.23789966299995,-17.73455039312455],[-149.190521626,-17.7503264761212],[-149.16033956599998,-17.75352936912051],[-149.12907355799993,-17.790528933112544],[-149.1327206919999,-17.841923746101724],[-149.15324361399996,-17.87593868309468],[-149.19482455899993,-17.876617617094464],[-149.25131271999993,-17.85856400309823],[-149.29438765499998,-17.82333687610562],[-149.30143767399994,-17.788704193112963],[-149.31498769099989,-17.764033737118204],[-149.34500160999994,-17.75506208312019],[-149.393890569,-17.76080888411883],[-149.414413659,-17.774341131116017],[-149.44171167399998,-17.771623215116577],[-149.45877069099996,-17.781094431114578],[-149.57923858799992,-17.742773878122765],[-149.59049967499996,-17.688723343134587],[-149.62361171299995,-17.61804663215037],[-149.62205469099993,-17.560870150163435],[-149.57836971999998,-17.541734098167886],[-149.5711976609999,-17.524447093171883],[-149.52314756299995,-17.520802474172623],[-149.48611463799995,-17.498264710178027],[-149.47640956799995,-17.503094698176728]],[[-149.76615871699994,-17.499121675177662],[-149.77616872099992,-17.539535189168323],[-149.78811662099997,-17.546349844166716],[-149.8041537169999,-17.587754434157215],[-149.84059169399998,-17.587033423157468],[-149.90660068999992,-17.530142764170552],[-149.919128618,-17.499016902177786],[-149.90797465199995,-17.486445556180747],[-149.87066663299987,-17.489961429179967],[-149.79418964599992,-17.472891348183904],[-149.7738186029999,-17.47295924118398],[-149.76615871699994,-17.499121675177662]],[[-150.96275368399995,-16.769680013368774],[-150.95954861199988,-16.78678596936386],[-150.982070618,-16.809253493357314],[-150.999023688,-16.809613244357248],[-151.02725259599993,-16.777661429366468],[-150.97831770399998,-16.75078921537422],[-150.96275368399995,-16.769680013368774]],[[-151.43920872099997,-16.743302499376423],[-151.40161169399994,-16.79679127936098],[-151.40232868199993,-16.815608149355615],[-151.3771367049999,-16.824997557352777],[-151.3550106589999,-16.85265783734504],[-151.39295955799992,-16.88303569833639],[-151.42842070899997,-16.89189335833396],[-151.44865462299992,-16.914844686327545],[-151.47267162499998,-16.905717464330134],[-151.46281467499995,-16.873208587339185],[-151.4808806939999,-16.852340666345093],[-151.49452157099995,-16.7909604923627],[-151.49436969099992,-16.756498800372462],[-151.48152157399997,-16.72662972038129],[-151.45858768099995,-16.7198670333833],[-151.43920872099997,-16.743302499376423]],[[-150.9882205879999,-16.68659490139305],[-150.97908062499994,-16.74525028637577],[-151.00595065999994,-16.748960116374754],[-151.01783770699998,-16.76786600236923],[-151.0497435899999,-16.75876644037195],[-151.037704662,-16.72952935638041],[-151.04138163499994,-16.705284030387475],[-151.0245056789999,-16.680803341394718],[-150.9882205879999,-16.68659490139305]],[[-151.50039661399995,-16.578912758425293],[-151.48280366999995,-16.580232740424744],[-151.44398456199997,-16.60022642941879],[-151.43356367699988,-16.614610613414442],[-151.4560085699999,-16.67745175339576],[-151.4840545849999,-16.680816417394738],[-151.52787768999994,-16.654199180402642],[-151.548126691,-16.635086429408272],[-151.53924556199993,-16.59060802842167],[-151.50039661399995,-16.578912758425293]],[[-151.7487636369999,-16.46896364645901],[-151.726989632,-16.47873392845607],[-151.72207666299988,-16.517051630444197],[-151.7386325989999,-16.525624976441524],[-151.7633206559999,-16.493460261451443],[-151.7487636369999,-16.46896364645901]],[[-174.91058365699993,-21.452702965813693],[-174.93496661299997,-21.428435343812616],[-174.95562766899997,-21.420575968812187],[-174.97181664399997,-21.39374449081101],[-174.96412658399996,-21.338528535808994],[-174.95011857899993,-21.329445737808527],[-174.92715467899995,-21.280349578806995],[-174.90631072999992,-21.33441771580883],[-174.90429672599996,-21.420672863812257],[-174.91058365699993,-21.452702965813693]],[[-175.29951469299996,-21.120091444802423],[-175.24699368799992,-21.11043482180225],[-175.18531763299998,-21.13870429980282],[-175.22935464299997,-21.16837489580355],[-175.209533621,-21.178316167803818],[-175.19374060699994,-21.158032297803338],[-175.1664276729999,-21.16356100080354],[-175.16860965,-21.18741572980408],[-175.1325986469999,-21.18925572480416],[-175.11868267599993,-21.166158720803587],[-175.1249236729999,-21.135881441802667],[-175.10406463699996,-21.126753046802587],[-175.05392459499996,-21.13123367680265],[-175.03958164999997,-21.161021283803464],[-175.07594268099996,-21.172296452803696],[-175.10859673199997,-21.215616139804958],[-175.10163874599996,-21.246370516805847],[-175.1138456469999,-21.26146347380622],[-175.14550761599995,-21.27008526780664],[-175.17182964199998,-21.25538810280612],[-175.20545968099995,-21.214286267804805],[-175.22831763399995,-21.199209905804427],[-175.27450560899987,-21.19363443180424],[-175.3017426029999,-21.169696553803615],[-175.34103361199996,-21.147042951803062],[-175.3353726429999,-21.106037340802054],[-175.29951469299996,-21.120091444802423]],[[-174.78781174099996,-20.262299543807668],[-174.81037867499992,-20.23991684480857],[-174.78071562199992,-20.23372228280882],[-174.78781174099996,-20.262299543807668]],[[-174.30758669199992,-19.752143723834948],[-174.32617171799993,-19.736575511836065],[-174.287124622,-19.718997654837352],[-174.28076158399992,-19.73729769683589],[-174.30758669199992,-19.752143723834948]],[[-175.08367967999996,-19.703993377838533],[-175.06027271299993,-19.709877138838056],[-175.03968759699995,-19.73799540583593],[-175.04238858099995,-19.773117591833504],[-175.07557672699986,-19.777798381833144],[-175.0973507319999,-19.765974869833936],[-175.11216758999998,-19.73983640683581],[-175.09609964899997,-19.705286369838376],[-175.08367967999996,-19.703993377838533]],[[-169.83798258399995,-19.13207080989276],[-169.87928759799993,-19.150864880890477],[-169.91564963499994,-19.136983443892078],[-169.91772465899993,-19.104114480895944],[-169.94807469199995,-19.077559940899143],[-169.94738771099998,-19.063762992900784],[-169.92137162499998,-19.036996558903912],[-169.92343172899996,-19.00688725390764],[-169.87963863199994,-18.9549893589142],[-169.83663963599997,-18.949751507914836],[-169.80587771599997,-18.962951831913184],[-169.79667673299994,-19.01463783190672],[-169.77517664899995,-19.059832047901168],[-169.79293874,-19.08980020189765],[-169.83798258399995,-19.13207080989276]],[[-174.6409606299999,-18.815730407932733],[-174.66975364099997,-18.79850643493508],[-174.63868662,-18.783359329937202],[-174.62629665799994,-18.799742262934913],[-174.6409606299999,-18.815730407932733]],[[-173.95437664399995,-18.56648144096937],[-173.9095456999999,-18.614238339962025],[-173.90772967699994,-18.631518471959303],[-173.94859262799986,-18.624072826960504],[-173.96815464899996,-18.658415831955317],[-173.99542265699995,-18.680883522951994],[-174.0122226729999,-18.664921529954423],[-173.994460582,-18.63629615695869],[-174.0264127319999,-18.631480249959395],[-174.03207370199988,-18.65694598095551],[-174.05873066799998,-18.66193857795486],[-174.06948867399996,-18.62401901496045],[-174.02803060699995,-18.615408285961852],[-174.00482161999994,-18.568497120969052],[-173.95437664399995,-18.56648144096937]],[[-173.73863265899985,-15.974162802622407],[-173.76409872499994,-15.9768476936215],[-173.7614136659999,-15.95254620962994],[-173.71258572699992,-15.944162965632893],[-173.73863265899985,-15.974162802622407]],[[-175.61975066899993,-15.631798602746226],[-175.6540225939999,-15.635303579744818],[-175.6818847109999,-15.604238569756454],[-175.66133161399995,-15.57315059376823],[-175.62478668399993,-15.561880119772482],[-175.5975496889999,-15.588792398762365],[-175.600173728,-15.61378186975289],[-175.61975066899993,-15.631798602746226]],[[-128.29664562099993,-24.32189279819758],[-128.28910861399999,-24.366417300207388],[-128.29122957099995,-24.40544947721606],[-128.33171064299987,-24.392446295213144],[-128.34620664099998,-24.349233393203594],[-128.33312969899998,-24.325072390198343],[-128.29664562099993,-24.32189279819758]],[[-140.61114465899988,-21.724249303828245],[-140.6598356379999,-21.718151804827812],[-140.67816166299997,-21.68069777282548],[-140.67187456499997,-21.660079967824355],[-140.6367646169999,-21.64906128482376],[-140.63032563899998,-21.66659354482463],[-140.59208655799995,-21.711109999827308],[-140.61114465899988,-21.724249303828245]],[[-143.06829857099996,-17.838830153102368],[-143.06297271000003,-17.858987960098084],[-143.09735058299995,-17.857806782098404],[-143.09394870399996,-17.842367987101593],[-143.06829857099996,-17.838830153102368]],[[-140.79078661399993,-17.78780431211309],[-140.78227261199999,-17.76574867511787],[-140.7482145919999,-17.73889607412365],[-140.66714465699994,-17.694026741133438],[-140.6661076479999,-17.704805198131083],[-140.75672859399987,-17.7517592781209],[-140.79078661399993,-17.78780431211309]],[[-146.34873961099996,-16.20186139354486],[-146.37774669499996,-16.200303532545462],[-146.40390057999997,-16.16800470755625],[-146.40328970699997,-16.147584044563025],[-146.3675076979999,-16.128767006569404],[-146.3411715899999,-16.134898704567252],[-146.31715358199995,-16.16946751655572],[-146.31683356099995,-16.19448498354743],[-146.34873961099996,-16.20186139354486]],[[-145.62684668999995,-16.042171720598926],[-145.61262461199996,-16.0589516205931],[-145.61006159399992,-16.082360096585088],[-145.5956417029999,-16.116350893573557],[-145.60752858299995,-16.118853729572688],[-145.62022364599997,-16.05526475659435],[-145.62684668999995,-16.042171720598926]],[[-148.23850958799994,-15.85946919766294],[-148.27761870999993,-15.853419643665045],[-148.28587371199995,-15.8347917016717],[-148.27629068199997,-15.798736106684753],[-148.22779868899994,-15.845473096667945],[-148.23850958799994,-15.85946919766294]],[[-144.63043168799996,-15.749800041702578],[-144.65014659499997,-15.747484289703419],[-144.6504055959999,-15.722436815712559],[-144.6266936949999,-15.72355999071211],[-144.63043168799996,-15.749800041702578]],[[-144.33114661499994,-27.574138793166906],[-144.31185868199992,-27.576812620167797],[-144.31289669699993,-27.636701318190095],[-144.36309859799994,-27.630893497187966],[-144.37429765899995,-27.614834106181934],[-144.37646471599996,-27.57966950816897],[-144.33114661499994,-27.574138793166906]],[[-147.64121969399997,-23.848222397100713],[-147.67069968499996,-23.881992582107223],[-147.67831464399995,-23.85873866810266],[-147.64121969399997,-23.848222397100713]],[[-149.47920258499994,-23.408311452022076],[-149.50483662499994,-23.3902786250191],[-149.48649567899994,-23.365927855015105],[-149.45019566799994,-23.35782020801368],[-149.42236355899996,-23.367638770015375],[-149.42201269199998,-23.391506574019264],[-149.444747599,-23.404061659021373],[-149.47920258499994,-23.408311452022076]],[[-152.85195955899994,-22.649782908913185],[-152.87716662399995,-22.63494056991137],[-152.85882567899995,-22.613783807908796],[-152.83329758699995,-22.63572461291148],[-152.85195955899994,-22.649782908913185]],[[-151.33711261399992,-22.52146066489816],[-151.35018972399988,-22.50172480389598],[-151.3489986559999,-22.47764594289329],[-151.36866762999992,-22.46158889789149],[-151.36187761699992,-22.43379232788856],[-151.31675766499995,-22.456448947890966],[-151.31767263399988,-22.499144685895665],[-151.33711261399992,-22.52146066489816]],[[178.664581606,-7.449050115174647],[178.6928706970001,-7.469909487155493],[178.68455467600032,-7.493393903133976],[178.66006459900015,-7.460107354164585],[178.664581606,-7.449050115174647]],[[138.15977459500007,9.615714167311435],[138.17881760900002,9.598714494324975],[138.17127959500021,9.555809375359276],[138.18850658600013,9.53533305737578],[138.1602476700002,9.513548658393178],[138.14259370500005,9.514918428392106],[138.12767056500013,9.536574752374749],[138.1080326040002,9.496724837406697],[138.083068614,9.473137323425753],[138.06361354600008,9.437660918454398],[138.05281061400024,9.446944379446851],[138.06646758400007,9.498908490404869],[138.11268657200011,9.579168901340669],[138.14581269100017,9.566967700350345],[138.15977459500007,9.615714167311435]]],"bbox":[-179.9992067369999,-29.298525606858018,179.99902367600018,28.21738004141283],"objects":{"sanitized":{"type":"GeometryCollection","geometries":[{"arcs":[[[0]],[[1]],[[2]],[[3]],[[4]]],"type":"MultiPolygon","properties":{"id":"eco_618","name":"Carolines tropical moist forests","biomeNum":"1","biome":"Tropical & Subtropical Moist Broadleaf Forests","realm":"Oceania","realmSlug":"oceania","areaKm2":577.76,"FID":"eco_618"},"id":"eco_618"},{"arcs":[[[5]],[[6]],[[7]]],"type":"MultiPolygon","properties":{"id":"eco_619","name":"Central Polynesian tropical moist forests","biomeNum":"1","biome":"Tropical & Subtropical Moist Broadleaf Forests","realm":"Oceania","realmSlug":"oceania","areaKm2":611.86,"FID":"eco_619"},"id":"eco_619"},{"arcs":[[[8]],[[9]],[[10]],[[11]],[[12]],[[13]]],"type":"MultiPolygon","properties":{"id":"eco_620","name":"Cook Islands tropical moist forests","biomeNum":"1","biome":"Tropical & Subtropical Moist Broadleaf Forests","realm":"Oceania","realmSlug":"oceania","areaKm2":211.97,"FID":"eco_620"},"id":"eco_620"},{"arcs":[[[14]],[[15]],[[16]],[[17]],[[18]]],"type":"MultiPolygon","properties":{"id":"eco_621","name":"Eastern Micronesia tropical moist forests","biomeNum":"1","biome":"Tropical & Subtropical Moist Broadleaf Forests","realm":"Oceania","realmSlug":"oceania","areaKm2":530.17,"FID":"eco_621"},"id":"eco_621"},{"arcs":[[[19,20]],[[21,22]]],"type":"MultiPolygon","properties":{"id":"eco_635","name":"Fiji tropical dry forests","biomeNum":"2","biome":"Tropical & Subtropical Dry Broadleaf Forests","realm":"Oceania","realmSlug":"oceania","areaKm2":6889.81,"FID":"eco_635"},"id":"eco_635"},{"arcs":[[[23]],[[24]],[[25]],[[26]],[[27]],[[28]],[[29]],[[30]],[[31]],[[32]],[[33]],[[34]],[[35]],[[36]],[[37]],[[38]],[[39]],[[40]],[[41,-20]],[[42]],[[43]],[[44]],[[45]],[[46]],[[47]],[[48]],[[49]],[[50]],[[51]],[[52]],[[53]],[[54]],[[55]],[[56]],[[57]],[[58]],[[-22,59]],[[60]],[[61]],[[62]],[[63]],[[64]]],"type":"MultiPolygon","properties":{"id":"eco_622","name":"Fiji tropical moist forests","biomeNum":"1","biome":"Tropical & Subtropical Moist Broadleaf Forests","realm":"Oceania","realmSlug":"oceania","areaKm2":11571.78,"FID":"eco_622"},"id":"eco_622"},{"arcs":[[[65,66,67,68,69,70,71,72],[73],[74],[75],[76],[77]],[[78]],[[79],[80]],[[81,82,83,84,85,86,87,88,89,90]],[[91]],[[92,93,94,95]],[[96,97]],[[98,99,100,101,102,103,104,105,106,107]],[[108,109,110,111]],[[112,113,114,115]]],"type":"MultiPolygon","properties":{"id":"eco_636","name":"Hawai'i tropical dry forests","biomeNum":"2","biome":"Tropical & Subtropical Dry Broadleaf Forests","realm":"Oceania","realmSlug":"oceania","areaKm2":6614.44,"FID":"eco_636"},"id":"eco_636"},{"arcs":[[[-78]],[[-75]],[[-74]],[[-85,116]]],"type":"MultiPolygon","properties":{"id":"eco_639","name":"Hawai'i tropical high shrublands","biomeNum":"7","biome":"Tropical & Subtropical Grasslands, Savannas & Shrublands","realm":"Oceania","realmSlug":"oceania","areaKm2":1847.59,"FID":"eco_639"},"id":"eco_639"},{"arcs":[[[117,-68]],[[118,-70]],[[119,-72]],[[120,-88]],[[121],[-79]],[[122],[-80]],[[123,-90]],[[-95,124],[-92]],[[125,-102]],[[-100,126]],[[-104,127]],[[128,-106]],[[-109,129]],[[-111,130]],[[131,-114]]],"type":"MultiPolygon","properties":{"id":"eco_640","name":"Hawai'i tropical low shrublands","biomeNum":"7","biome":"Tropical & Subtropical Grasslands, Savannas & Shrublands","realm":"Oceania","realmSlug":"oceania","areaKm2":1517.52,"FID":"eco_640"},"id":"eco_640"},{"arcs":[[[-76]],[[-77]],[[132,-66]],[[-81]],[[-86,-117,-84,133]],[[134,-82]],[[-93,135]],[[-97,-108,136]],[[-116,137]]],"type":"MultiPolygon","properties":{"id":"eco_623","name":"Hawai'i tropical moist forests","biomeNum":"1","biome":"Tropical & Subtropical Moist Broadleaf Forests","realm":"Oceania","realmSlug":"oceania","areaKm2":6717.54,"FID":"eco_623"},"id":"eco_623"},{"arcs":[[138]],"type":"Polygon","properties":{"id":"eco_624","name":"Kermadec Islands subtropical moist forests","biomeNum":"1","biome":"Tropical & Subtropical Moist Broadleaf Forests","realm":"Oceania","realmSlug":"oceania","areaKm2":33.74,"FID":"eco_624"},"id":"eco_624"},{"arcs":[[[139]],[[140]],[[141]],[[142]],[[143]],[[144]],[[145]]],"type":"MultiPolygon","properties":{"id":"eco_637","name":"Marianas tropical dry forests","biomeNum":"2","biome":"Tropical & Subtropical Dry Broadleaf Forests","realm":"Oceania","realmSlug":"oceania","areaKm2":1032.12,"FID":"eco_637"},"id":"eco_637"},{"arcs":[[[146]],[[147]],[[148]],[[149]],[[150]],[[151]],[[152]]],"type":"MultiPolygon","properties":{"id":"eco_625","name":"Marquesas tropical moist forests","biomeNum":"1","biome":"Tropical & Subtropical Moist Broadleaf Forests","realm":"Oceania","realmSlug":"oceania","areaKm2":1074.15,"FID":"eco_625"},"id":"eco_625"},{"arcs":[[153]],"type":"Polygon","properties":{"id":"eco_641","name":"Northwest Hawai'i scrub","biomeNum":"7","biome":"Tropical & Subtropical Grasslands, Savannas & Shrublands","realm":"Oceania","realmSlug":"oceania","areaKm2":14.74,"FID":"eco_641"},"id":"eco_641"},{"arcs":[[[154]],[[155]],[[156]]],"type":"MultiPolygon","properties":{"id":"eco_626","name":"Ogasawara subtropical moist forests","biomeNum":"1","biome":"Tropical & Subtropical Moist Broadleaf Forests","realm":"Oceania","realmSlug":"oceania","areaKm2":96.25,"FID":"eco_626"},"id":"eco_626"},{"arcs":[[157]],"type":"Polygon","properties":{"id":"eco_627","name":"Palau tropical moist forests","biomeNum":"1","biome":"Tropical & Subtropical Moist Broadleaf Forests","realm":"Oceania","realmSlug":"oceania","areaKm2":459.75,"FID":"eco_627"},"id":"eco_627"},{"arcs":[[158]],"type":"Polygon","properties":{"id":"eco_628","name":"Rapa Nui and Sala y Gómez subtropical forests","biomeNum":"1","biome":"Tropical & Subtropical Moist Broadleaf Forests","realm":"Oceania","realmSlug":"oceania","areaKm2":178.04,"FID":"eco_628"},"id":"eco_628"},{"arcs":[[[159]],[[160]],[[161]],[[162]],[[163]]],"type":"MultiPolygon","properties":{"id":"eco_629","name":"Samoan tropical moist forests","biomeNum":"1","biome":"Tropical & Subtropical Moist Broadleaf Forests","realm":"Oceania","realmSlug":"oceania","areaKm2":3082.52,"FID":"eco_629"},"id":"eco_629"},{"arcs":[[[164]],[[165]],[[166]],[[167]],[[168]],[[169]],[[170]]],"type":"MultiPolygon","properties":{"id":"eco_630","name":"Society Islands tropical moist forests","biomeNum":"1","biome":"Tropical & Subtropical Moist Broadleaf Forests","realm":"Oceania","realmSlug":"oceania","areaKm2":1620.46,"FID":"eco_630"},"id":"eco_630"},{"arcs":[[[171]],[[172]],[[173]],[[174]],[[175]],[[176]],[[177]],[[178]],[[179]],[[180]]],"type":"MultiPolygon","properties":{"id":"eco_631","name":"Tongan tropical moist forests","biomeNum":"1","biome":"Tropical & Subtropical Moist Broadleaf Forests","realm":"Oceania","realmSlug":"oceania","areaKm2":937.77,"FID":"eco_631"},"id":"eco_631"},{"arcs":[[[181]],[[182]],[[183]],[[184]],[[185]],[[186]],[[187]],[[188]]],"type":"MultiPolygon","properties":{"id":"eco_632","name":"Tuamotu tropical moist forests","biomeNum":"1","biome":"Tropical & Subtropical Moist Broadleaf Forests","realm":"Oceania","realmSlug":"oceania","areaKm2":943.13,"FID":"eco_632"},"id":"eco_632"},{"arcs":[[[189]],[[190]],[[191]],[[192]],[[193]]],"type":"MultiPolygon","properties":{"id":"eco_633","name":"Tubuai tropical moist forests","biomeNum":"1","biome":"Tropical & Subtropical Moist Broadleaf Forests","realm":"Oceania","realmSlug":"oceania","areaKm2":141.63,"FID":"eco_633"},"id":"eco_633"},{"arcs":[[194]],"type":"Polygon","properties":{"id":"eco_634","name":"Western Polynesian tropical moist forests","biomeNum":"1","biome":"Tropical & Subtropical Moist Broadleaf Forests","realm":"Oceania","realmSlug":"oceania","areaKm2":92.73,"FID":"eco_634"},"id":"eco_634"},{"arcs":[[195]],"type":"Polygon","properties":{"id":"eco_638","name":"Yap tropical dry forests","biomeNum":"2","biome":"Tropical & Subtropical Dry Broadleaf Forests","realm":"Oceania","realmSlug":"oceania","areaKm2":101.45,"FID":"eco_638"},"id":"eco_638"}]}}}